{
"type": "FeatureCollection",
"name": "nature_reserves",
"crs": { "type": "name", "properties": { "name": "urn:ogc:def:crs:OGC:1.3:CRS84" } },
"features": [
{ "type": "Feature", "properties": { "Map_Ref": 1.0, "ID": "Glen of the Downs", "Habiitat": "Woodland", "Plan_Descr": "County Development Plan 2022-2028 - Volume 1- Chapter 17 - Natural Heritage & Biodiversity", "Shape__Area": 665371.17654418945, "Shape__Length": 5897.2594870113353 }, "geometry": { "type": "MultiPolygon", "coordinates": [ [ [ [ -6.117170238323243, 53.140024694902728 ], [ -6.116761059635958, 53.139887629827655 ], [ -6.115481692913987, 53.139016428357337 ], [ -6.114810156782973, 53.139057921018569 ], [ -6.114175120188996, 53.138469055686002 ], [ -6.113912266868172, 53.138416716548605 ], [ -6.113599766724152, 53.137840687505161 ], [ -6.112844417969778, 53.137112216016803 ], [ -6.112316931037046, 53.136455660542872 ], [ -6.111211442014895, 53.135629051524219 ], [ -6.111450469010179, 53.13534470038956 ], [ -6.111133436095877, 53.135066983368453 ], [ -6.11069754422788, 53.135048559554811 ], [ -6.109448185447755, 53.133598421520063 ], [ -6.108654224357227, 53.133174080369344 ], [ -6.107617259636126, 53.131462340721683 ], [ -6.106937598300316, 53.130777545430519 ], [ -6.105303433844813, 53.129810078973975 ], [ -6.104308511721036, 53.130064403176398 ], [ -6.101696613024973, 53.130897359592019 ], [ -6.101195135572016, 53.130441772437045 ], [ -6.102673984696688, 53.129878822835366 ], [ -6.104139214441174, 53.129243647663692 ], [ -6.10451091056079, 53.128966546054698 ], [ -6.104582298948922, 53.128512367085207 ], [ -6.105484442640781, 53.128223128866615 ], [ -6.107106766961873, 53.128480468196557 ], [ -6.108339396419861, 53.12924613633276 ], [ -6.108772533797572, 53.129314676425565 ], [ -6.10897999654705, 53.130233727018521 ], [ -6.109901401128732, 53.13088127765765 ], [ -6.110287228933574, 53.130663522098601 ], [ -6.111539270499776, 53.13059612685818 ], [ -6.113037463984118, 53.13115483816329 ], [ -6.112590474897202, 53.131199248703538 ], [ -6.11123804643909, 53.131023383647126 ], [ -6.11124538963379, 53.131440258315578 ], [ -6.112344131703481, 53.132131676535089 ], [ -6.113413822393676, 53.13212293451388 ], [ -6.113372653467793, 53.132477295163888 ], [ -6.114028940985119, 53.132533984260832 ], [ -6.115627455920481, 53.133534197860612 ], [ -6.118640345644883, 53.135071479570179 ], [ -6.119169359747603, 53.135105455929107 ], [ -6.121307387601007, 53.136296836430908 ], [ -6.124118526674269, 53.138540725119427 ], [ -6.124875491491005, 53.139036189367609 ], [ -6.126314167948377, 53.139596487822423 ], [ -6.126253065839656, 53.139822014008168 ], [ -6.125718037715141, 53.139720927474798 ], [ -6.124645597628055, 53.139992177273761 ], [ -6.124390658934078, 53.140343171242527 ], [ -6.123709375420082, 53.140661650712651 ], [ -6.12381026961791, 53.141293634349147 ], [ -6.123436782162648, 53.142007925461499 ], [ -6.122110818712356, 53.143612156075953 ], [ -6.12104456553408, 53.143439752426744 ], [ -6.12215909684492, 53.142068212612287 ], [ -6.122502107275691, 53.141270308388677 ], [ -6.121243607295089, 53.140840882247566 ], [ -6.120642630239484, 53.140793286095239 ], [ -6.119201367131077, 53.140335247510649 ], [ -6.117170238323243, 53.140024694902728 ] ] ] ] } },
{ "type": "Feature", "properties": { "Map_Ref": 2.0, "ID": "Deputy's Pass, Glenealy", "Habiitat": "Woodland", "Plan_Descr": "County Development Plan 2022-2028 - Volume 1- Chapter 17 - Natural Heritage & Biodiversity", "Shape__Area": 481865.96459960938, "Shape__Length": 3299.4869043142171 }, "geometry": { "type": "MultiPolygon", "coordinates": [ [ [ [ -6.159617464792695, 52.949146498386 ], [ -6.161335702121557, 52.947562756221267 ], [ -6.161983464209902, 52.947692138621818 ], [ -6.167345587298844, 52.948466510964003 ], [ -6.167713622466905, 52.948812288236098 ], [ -6.168288294924821, 52.948833823369256 ], [ -6.168663370489131, 52.949155528942249 ], [ -6.169802569751686, 52.949343135622627 ], [ -6.16981889608543, 52.949947459169053 ], [ -6.169659529797814, 52.950779972109956 ], [ -6.168735217022109, 52.951779554177421 ], [ -6.168100866772431, 52.952265811439553 ], [ -6.168088192862274, 52.952522038522041 ], [ -6.166768604838516, 52.953466075561927 ], [ -6.16588062299458, 52.95419593153953 ], [ -6.165346794442854, 52.954889367955374 ], [ -6.165270294719503, 52.95521183756766 ], [ -6.161653027283612, 52.95593237509231 ], [ -6.159102205101923, 52.955976730318561 ], [ -6.158383524264421, 52.955685171007133 ], [ -6.158565662405334, 52.954804759694241 ], [ -6.159126133699791, 52.953137304888031 ], [ -6.158823114050458, 52.952902879464681 ], [ -6.159219680658503, 52.952619706986766 ], [ -6.160374835932023, 52.952082962512414 ], [ -6.161603217753297, 52.950913068203526 ], [ -6.16099602208429, 52.950517911160453 ], [ -6.160320235695084, 52.950301896116223 ], [ -6.159889037263785, 52.950415744249668 ], [ -6.158692672436936, 52.951279092350781 ], [ -6.157703877453832, 52.950694561816086 ], [ -6.159617464792695, 52.949146498386 ] ] ] ] } },
{ "type": "Feature", "properties": { "Map_Ref": 6.0, "ID": "Knocksink Wood", "Habiitat": "Woodland", "Plan_Descr": "County Development Plan 2022-2028- Volume 1- Chapter 17 - Natural Heritage & Biodiversity", "Shape__Area": 552854.45050048828, "Shape__Length": 8629.1945396364699 }, "geometry": { "type": "MultiPolygon", "coordinates": [ [ [ [ -6.174563747306387, 53.194690321635676 ], [ -6.175052645820608, 53.194838379681343 ], [ -6.175110770431078, 53.195152304708678 ], [ -6.176857500081519, 53.194984389414493 ], [ -6.178172383541499, 53.195054124040261 ], [ -6.178693341715318, 53.195735884558545 ], [ -6.178680501836262, 53.196224877001441 ], [ -6.178341705836242, 53.196462896924778 ], [ -6.178790397334565, 53.196733182925534 ], [ -6.179243186529601, 53.197369859919753 ], [ -6.180037596588994, 53.197131431416139 ], [ -6.180390178633539, 53.197252488613934 ], [ -6.180740478389891, 53.1978149748631 ], [ -6.181899352789224, 53.198720276265945 ], [ -6.183442990799014, 53.198944073264904 ], [ -6.18341499983705, 53.199273037164701 ], [ -6.184658518110266, 53.199728970323115 ], [ -6.187864713994871, 53.200362434703116 ], [ -6.188322553866189, 53.200274941927518 ], [ -6.189101591427481, 53.200687901836282 ], [ -6.189382957689056, 53.200648949635166 ], [ -6.189197199107324, 53.201061076806049 ], [ -6.189339373613407, 53.201427770495592 ], [ -6.189819081878741, 53.201685543216804 ], [ -6.190074654546851, 53.202656839138214 ], [ -6.190471645432978, 53.20238210249115 ], [ -6.190660446340853, 53.20258602130211 ], [ -6.190852229835087, 53.203439867352373 ], [ -6.19121920892845, 53.203575669476614 ], [ -6.192998591755088, 53.203260348976485 ], [ -6.193355964568011, 53.203416309901669 ], [ -6.193919196036803, 53.204301489431749 ], [ -6.194959843692317, 53.204203395158373 ], [ -6.195300281394928, 53.204327907799204 ], [ -6.196416596502432, 53.204041940919907 ], [ -6.197015275689861, 53.204552146290425 ], [ -6.197925031004748, 53.205710556735383 ], [ -6.198538851170524, 53.205619723058653 ], [ -6.20021107336863, 53.205125440542339 ], [ -6.200305518518002, 53.205316861662318 ], [ -6.201866708144422, 53.206694491129966 ], [ -6.202577101073125, 53.207175167680141 ], [ -6.204572658847054, 53.208237024644006 ], [ -6.205532427187557, 53.208976595360987 ], [ -6.206264026028817, 53.20933578921958 ], [ -6.208211240675872, 53.210034032482824 ], [ -6.208893462856091, 53.209748876888305 ], [ -6.210289991585328, 53.209406328773383 ], [ -6.211694568130268, 53.209477575750761 ], [ -6.21149651089401, 53.210594974932413 ], [ -6.210941962993426, 53.21036474679449 ], [ -6.209357836403122, 53.211030276900971 ], [ -6.208043764547107, 53.211209315984583 ], [ -6.205851886575186, 53.210836324168589 ], [ -6.205201564710329, 53.210254386883882 ], [ -6.204138739252915, 53.209840851968742 ], [ -6.202805202053606, 53.208857373611274 ], [ -6.201636624926149, 53.208467385716148 ], [ -6.201161611553476, 53.208158953137428 ], [ -6.2002275138769, 53.208093163280438 ], [ -6.198898253457878, 53.207543708943071 ], [ -6.198368231936651, 53.20711112571896 ], [ -6.197049768024964, 53.206929040840919 ], [ -6.196437667744776, 53.205999906936952 ], [ -6.196094086533944, 53.20586168978857 ], [ -6.194359027443134, 53.20573177223018 ], [ -6.19367637073233, 53.2049584750565 ], [ -6.19299182481652, 53.2050225066913 ], [ -6.19204431824023, 53.20457349382373 ], [ -6.191514830358745, 53.204707996061032 ], [ -6.19080343220987, 53.204618281449086 ], [ -6.189950697482995, 53.204200259436767 ], [ -6.189842045932399, 53.204001422865723 ], [ -6.188955969630222, 53.203642653889737 ], [ -6.188756146541449, 53.203378169492204 ], [ -6.189056340670516, 53.203191840673107 ], [ -6.188012961723803, 53.203255420015601 ], [ -6.187344701190451, 53.202866968678848 ], [ -6.18610359753333, 53.201930361650369 ], [ -6.185697513221509, 53.201966956041325 ], [ -6.184826548672556, 53.201681723549207 ], [ -6.183664605203364, 53.200991565334547 ], [ -6.182963993237046, 53.200879229359757 ], [ -6.181150375920819, 53.200071252248812 ], [ -6.180150200780258, 53.199891681173874 ], [ -6.179797643022995, 53.200110261209304 ], [ -6.178203201668955, 53.199893369257168 ], [ -6.177278410514081, 53.199017228835615 ], [ -6.17639329359277, 53.198582524567655 ], [ -6.176171964174356, 53.198045008559106 ], [ -6.176170583186396, 53.196932516065189 ], [ -6.176780664135551, 53.196596468824588 ], [ -6.176824041590948, 53.195816119713918 ], [ -6.176383269221728, 53.195769646078247 ], [ -6.175252449188477, 53.195902145766816 ], [ -6.174115067282128, 53.195782344630409 ], [ -6.173372701854924, 53.195821379612475 ], [ -6.173500397022493, 53.196469808881297 ], [ -6.173331166016239, 53.197523243690775 ], [ -6.173619488635437, 53.198397295845915 ], [ -6.174491491604874, 53.19925872626991 ], [ -6.174357744001302, 53.19941404634455 ], [ -6.173235205806002, 53.198461594303787 ], [ -6.172927651953464, 53.197555250652677 ], [ -6.173014185786078, 53.197070624218526 ], [ -6.172929407155768, 53.195831385758524 ], [ -6.173232324963317, 53.195593011317484 ], [ -6.17412697508705, 53.195261341627017 ], [ -6.174563747306387, 53.194690321635676 ] ] ] ] } },
{ "type": "Feature", "properties": { "Map_Ref": 3.0, "ID": "Vale of Clara", "Habiitat": "Woodland", "Plan_Descr": "County Development Plan 2022-2028- Volume 1- Chapter 17 - Natural Heritage & Biodiversity", "Shape__Area": 2252177.7840576172, "Shape__Length": 15840.893726092372 }, "geometry": { "type": "MultiPolygon", "coordinates": [ [ [ [ -6.249721518572534, 52.94024078613986 ], [ -6.251230692550684, 52.941120533547732 ], [ -6.251825210323443, 52.941296366730754 ], [ -6.251648495706522, 52.94188407983065 ], [ -6.250611455487908, 52.942931610030747 ], [ -6.249192012513914, 52.944164125423427 ], [ -6.248200373344151, 52.944131080775939 ], [ -6.247613326987543, 52.943921636098004 ], [ -6.245725118528813, 52.944156746372876 ], [ -6.244628597899981, 52.944071341639301 ], [ -6.243314558316064, 52.944557116307855 ], [ -6.24224548195106, 52.944645110577177 ], [ -6.241657489364035, 52.9444564733354 ], [ -6.240066478495986, 52.944986645834909 ], [ -6.238316510574476, 52.944919092518248 ], [ -6.2375975529912, 52.945129885902645 ], [ -6.236720627508589, 52.945121185626498 ], [ -6.236480213526158, 52.946629535092249 ], [ -6.236670536539043, 52.947082286390064 ], [ -6.236510583154444, 52.948087796744161 ], [ -6.236988820776634, 52.948778862516306 ], [ -6.238231384596937, 52.949733189839861 ], [ -6.239983127738353, 52.950622968024668 ], [ -6.240264863266666, 52.951023140702468 ], [ -6.239959745293097, 52.951198645142433 ], [ -6.239635140561816, 52.951850748367519 ], [ -6.239847281855171, 52.952501906946473 ], [ -6.241411083012999, 52.953622828276465 ], [ -6.241754651509877, 52.953969986676277 ], [ -6.24131362104299, 52.954557366938481 ], [ -6.24006897530701, 52.955114778135112 ], [ -6.239786203517307, 52.955470636889572 ], [ -6.239291322050009, 52.956651121247944 ], [ -6.238874182280659, 52.957383010600253 ], [ -6.238371750084053, 52.958005421197512 ], [ -6.238303902453042, 52.958940306492067 ], [ -6.238143510742457, 52.959225894539735 ], [ -6.237288669723491, 52.959717245533241 ], [ -6.237863677886684, 52.960238704652681 ], [ -6.23830378656084, 52.960407101120317 ], [ -6.239636513147135, 52.961362746812476 ], [ -6.240398485543665, 52.961679976169677 ], [ -6.241458220006471, 52.962739679828061 ], [ -6.241525508808735, 52.963280568011974 ], [ -6.242623526571428, 52.964142737930054 ], [ -6.244183880583917, 52.964615642178963 ], [ -6.246698226887265, 52.965102877284096 ], [ -6.249385225025695, 52.965736406888659 ], [ -6.253589408686826, 52.966446201088644 ], [ -6.255289770716574, 52.96641707620936 ], [ -6.2568086961585, 52.966457527011237 ], [ -6.258097212043928, 52.967034289675873 ], [ -6.258686901470686, 52.967187006083101 ], [ -6.258902325796904, 52.968110412684283 ], [ -6.256591133566667, 52.967470212879064 ], [ -6.255635336742317, 52.967387428044475 ], [ -6.253093008338387, 52.9677404111589 ], [ -6.252667296429487, 52.967914894012402 ], [ -6.252023596444271, 52.967588789045074 ], [ -6.25092516241738, 52.967353414483313 ], [ -6.2505823231122, 52.967837836544561 ], [ -6.249182577654356, 52.96772437520859 ], [ -6.242498169363145, 52.965809990912597 ], [ -6.239303715032399, 52.96721528820084 ], [ -6.238434761220228, 52.967856803149125 ], [ -6.237062281236164, 52.968377147385603 ], [ -6.236121163827544, 52.968585444934142 ], [ -6.233262936462458, 52.968887027906021 ], [ -6.230986405314628, 52.969603449461367 ], [ -6.230272870689824, 52.970079149161428 ], [ -6.228987927072125, 52.969616909252771 ], [ -6.225944582854619, 52.967960457564793 ], [ -6.225253392938076, 52.968279714757387 ], [ -6.223838727856998, 52.968144970453487 ], [ -6.22317135048799, 52.967485448922126 ], [ -6.222404277062425, 52.967451595315431 ], [ -6.222058464755768, 52.967094461478752 ], [ -6.221222435682821, 52.96744828803336 ], [ -6.220326782064944, 52.967454108930376 ], [ -6.219872432699157, 52.967936774165757 ], [ -6.219053269112567, 52.96839015328176 ], [ -6.218400919319059, 52.969309794410279 ], [ -6.218440504579697, 52.970281512893273 ], [ -6.218846088463851, 52.970722689304957 ], [ -6.218329959308398, 52.971294030961779 ], [ -6.218316014302944, 52.971632928528031 ], [ -6.21789417982693, 52.97195941827696 ], [ -6.217494183718415, 52.971889515427236 ], [ -6.217513648631046, 52.970521874832066 ], [ -6.217767118211343, 52.970410543748528 ], [ -6.217437313691633, 52.969664917739529 ], [ -6.217382710028836, 52.969070547884236 ], [ -6.217958697497814, 52.968458495020954 ], [ -6.218989143516985, 52.968014852801119 ], [ -6.219688089881934, 52.967522913550262 ], [ -6.220401871591283, 52.966532103102125 ], [ -6.220569143336206, 52.966070661641368 ], [ -6.220943138849084, 52.96586675849597 ], [ -6.22222418915566, 52.965898696842665 ], [ -6.223502752272818, 52.965733932261521 ], [ -6.224397763360353, 52.965491340887198 ], [ -6.224617882900532, 52.964910606781963 ], [ -6.225276202010742, 52.964613331923616 ], [ -6.225838722137501, 52.963948193040849 ], [ -6.226315168626026, 52.963705716875459 ], [ -6.226387999554595, 52.962700627577924 ], [ -6.227174778677105, 52.962386025748614 ], [ -6.227758289200387, 52.961983543146282 ], [ -6.229732449506476, 52.959961256258708 ], [ -6.230333962431408, 52.959239874175957 ], [ -6.231140627994454, 52.958697524461499 ], [ -6.231509959438395, 52.958274307815159 ], [ -6.231498793733425, 52.957787096390746 ], [ -6.232697204042396, 52.957055802520877 ], [ -6.233209130126469, 52.956181271476773 ], [ -6.23280942574184, 52.955195393539675 ], [ -6.232637955885235, 52.954440120136631 ], [ -6.232433350144456, 52.954280599176592 ], [ -6.232402166501369, 52.953630951252883 ], [ -6.234858359690692, 52.95342399384284 ], [ -6.23451313957292, 52.95258561126758 ], [ -6.234620863608132, 52.952065383636025 ], [ -6.23507615376828, 52.951491092263808 ], [ -6.236228705722385, 52.951129825914876 ], [ -6.234207886782762, 52.949019952696922 ], [ -6.234012961400103, 52.948611348259206 ], [ -6.232817687698494, 52.947580743960401 ], [ -6.233939976761067, 52.946854777303351 ], [ -6.229303628750929, 52.943314327579131 ], [ -6.229668019123817, 52.943066304026651 ], [ -6.228937392827162, 52.942721517412004 ], [ -6.227734420763603, 52.941841019938884 ], [ -6.229858086198173, 52.942796088801472 ], [ -6.230663117899871, 52.942992691167724 ], [ -6.231728649606554, 52.943415343582082 ], [ -6.232015960569466, 52.943152414840618 ], [ -6.230222763234652, 52.942153146334043 ], [ -6.23101909799493, 52.942084568117913 ], [ -6.232488304548131, 52.942970880914494 ], [ -6.235654865861135, 52.944198587603054 ], [ -6.239316519127303, 52.943970073638155 ], [ -6.238284569903501, 52.942797601305251 ], [ -6.237848562705196, 52.940797113489722 ], [ -6.237863487188035, 52.940508467977921 ], [ -6.23859519064046, 52.94018740367946 ], [ -6.239627218308223, 52.940326374071049 ], [ -6.241235513055361, 52.941244119451319 ], [ -6.241374604012623, 52.941735382237063 ], [ -6.242278744229306, 52.941658347656315 ], [ -6.243593602179311, 52.941147431279987 ], [ -6.244386631849284, 52.941401823531919 ], [ -6.245670955019585, 52.941405070377833 ], [ -6.247469921674297, 52.941316583478191 ], [ -6.248407337015896, 52.941056284050937 ], [ -6.249721518572534, 52.94024078613986 ] ] ] ] } },
{ "type": "Feature", "properties": { "Map_Ref": 5.0, "ID": "Glenealo Valley", "Habiitat": "Blanket bog, heath", "Plan_Descr": "County Development Plan 2022-2028 - Volume 1- Chapter 17 - Natural Heritage & Biodiversity", "Shape__Area": 19612684.707794189, "Shape__Length": 26688.057238707566 }, "geometry": { "type": "MultiPolygon", "coordinates": [ [ [ [ -6.349192746954193, 53.002830787553201 ], [ -6.350393091500194, 53.002203226914816 ], [ -6.35180018654091, 53.002036975467753 ], [ -6.352737521394271, 53.001822495118546 ], [ -6.356000909949035, 53.001721810624915 ], [ -6.357814350011584, 53.001716142129688 ], [ -6.358881328624895, 53.001652507797218 ], [ -6.360571442793612, 53.001399375620949 ], [ -6.362130652793267, 53.001234561075123 ], [ -6.363405197193874, 53.001309098234131 ], [ -6.36512321289525, 53.001239901376884 ], [ -6.367998873194722, 53.000901316133628 ], [ -6.368963610837252, 53.000736067299428 ], [ -6.369919512262245, 53.00079205098406 ], [ -6.374355348287924, 52.999539641221318 ], [ -6.384044880105286, 52.995721503290817 ], [ -6.379964647560496, 52.992105380107652 ], [ -6.379882131468277, 52.990021042313778 ], [ -6.379442443667334, 52.989966605016356 ], [ -6.379376758388719, 52.987397439565186 ], [ -6.388188184969339, 52.991499540904222 ], [ -6.388466246661784, 52.991646122988051 ], [ -6.391485279065181, 52.994427395473799 ], [ -6.395875472068513, 52.995978202666116 ], [ -6.397088623020451, 52.996437023002684 ], [ -6.402739413234007, 52.998440010866886 ], [ -6.406086018947434, 52.999441293209856 ], [ -6.406673274239707, 52.99954910710558 ], [ -6.408988280530624, 53.000935965556145 ], [ -6.411445288148236, 53.002317845171603 ], [ -6.412276855141899, 53.002871168806848 ], [ -6.415695107749476, 53.004501265443317 ], [ -6.418645052273366, 53.006010623706281 ], [ -6.419972559217239, 53.007890832329991 ], [ -6.425626102609335, 53.01054928152746 ], [ -6.428785298248476, 53.012009564381032 ], [ -6.429232511559239, 53.012412718551218 ], [ -6.435706861955188, 53.017734872576369 ], [ -6.436476607570544, 53.018263841330231 ], [ -6.441394772728597, 53.018728182607219 ], [ -6.44176979069492, 53.019021684593589 ], [ -6.444018012394593, 53.021148697016613 ], [ -6.445954140012808, 53.023099748478856 ], [ -6.444772719957634, 53.024676053944177 ], [ -6.443534274625843, 53.026433685754419 ], [ -6.443353600258675, 53.026780480182005 ], [ -6.440265692367081, 53.028377240896411 ], [ -6.437409071207653, 53.029144461379971 ], [ -6.436889159359994, 53.029367704300917 ], [ -6.436049065103557, 53.030080500584951 ], [ -6.435210301492639, 53.030524944948581 ], [ -6.434491709042902, 53.030662248933936 ], [ -6.432909364441882, 53.030545238502135 ], [ -6.432619432776558, 53.031128473113029 ], [ -6.433037848525996, 53.032087908689149 ], [ -6.432375766806165, 53.0322968553441 ], [ -6.432337905595665, 53.032635450576038 ], [ -6.431586858271287, 53.033445375007652 ], [ -6.431884635182638, 53.033558139292957 ], [ -6.431264435492528, 53.033767633127617 ], [ -6.43144570493334, 53.034088716367208 ], [ -6.432386177569279, 53.034551567649594 ], [ -6.432264993843257, 53.035349666734113 ], [ -6.431158968589485, 53.035747599419885 ], [ -6.431176913196094, 53.036177882407571 ], [ -6.430844636898, 53.036310285590176 ], [ -6.430491570939613, 53.036781327094474 ], [ -6.42920948091597, 53.036000020550368 ], [ -6.429090807362967, 53.035675625447126 ], [ -6.428366755556133, 53.035115040685596 ], [ -6.427724326411796, 53.035177367987252 ], [ -6.426830241389808, 53.034630253067718 ], [ -6.426177941167908, 53.034605892704164 ], [ -6.426080441969757, 53.034777699472727 ], [ -6.423233371899514, 53.034779342526235 ], [ -6.42200822125185, 53.03507018786172 ], [ -6.424134135460829, 53.035145566949929 ], [ -6.424054803829185, 53.035530343783464 ], [ -6.422311200144811, 53.036073875710365 ], [ -6.420151780080914, 53.036903409449408 ], [ -6.423387339402937, 53.038438082588662 ], [ -6.423385717143774, 53.038839707023712 ], [ -6.42295039763667, 53.03931412994195 ], [ -6.424284803211284, 53.041398289494531 ], [ -6.425584177673522, 53.043741794267461 ], [ -6.42557713038967, 53.044292716878864 ], [ -6.425084566557586, 53.044892482483235 ], [ -6.421976090337802, 53.044890546890855 ], [ -6.420228914312571, 53.045150719720112 ], [ -6.419083642048439, 53.044678850380585 ], [ -6.416997061119716, 53.044588179390843 ], [ -6.41548307495571, 53.044663640667366 ], [ -6.413956166276916, 53.043925371890225 ], [ -6.412895645237377, 53.043315357490179 ], [ -6.410289651429216, 53.041209401515808 ], [ -6.408932445297157, 53.039715877155118 ], [ -6.407990286502577, 53.038455006428229 ], [ -6.407869045622062, 53.037914138428768 ], [ -6.407403880357512, 53.037766087423847 ], [ -6.40645017854903, 53.03809384274895 ], [ -6.405787544408041, 53.038198381115983 ], [ -6.405230448243301, 53.037992378531051 ], [ -6.405147937448059, 53.037679139263538 ], [ -6.40699078901653, 53.035298993079039 ], [ -6.407850263231703, 53.034883692621428 ], [ -6.410650956780745, 53.034264543297915 ], [ -6.41188823779597, 53.033936229345414 ], [ -6.412804614571989, 53.03345604557834 ], [ -6.413098056632027, 53.032885397639212 ], [ -6.412731857869725, 53.031731379665928 ], [ -6.412246541267937, 53.030854918523509 ], [ -6.412079096103714, 53.030228776466693 ], [ -6.41219021096029, 53.02868721212279 ], [ -6.412072987288394, 53.028176779013513 ], [ -6.411633119397897, 53.027546997155341 ], [ -6.410935078006522, 53.027275146853547 ], [ -6.410358598206775, 53.027398656229678 ], [ -6.409266616102506, 53.026743787274881 ], [ -6.408621953586866, 53.026505441372699 ], [ -6.406756546816888, 53.026135610401113 ], [ -6.405072427247375, 53.026031064341062 ], [ -6.40395171138996, 53.026147330214265 ], [ -6.403070796503754, 53.026414650417074 ], [ -6.402734965686994, 53.026656214925346 ], [ -6.402356801690506, 53.027307844726685 ], [ -6.394496380663096, 53.029080959943677 ], [ -6.393644375115954, 53.028607137829752 ], [ -6.392825094998313, 53.028642261229358 ], [ -6.392198371282397, 53.028310059671362 ], [ -6.388067973683011, 53.02924895136168 ], [ -6.386904578622704, 53.029681555710667 ], [ -6.385979311197984, 53.030371097357914 ], [ -6.384355613290398, 53.030166598742547 ], [ -6.377609972781321, 53.030627378540522 ], [ -6.377583658499306, 53.031030196937387 ], [ -6.376450767384562, 53.031104965937949 ], [ -6.373890170585036, 53.030260113048136 ], [ -6.372164465754523, 53.029762319010011 ], [ -6.370848442003709, 53.029170713237775 ], [ -6.370396135307602, 53.028811397314044 ], [ -6.369698675820196, 53.028830146304337 ], [ -6.368557403292865, 53.028248819871926 ], [ -6.36660696334943, 53.02793336208925 ], [ -6.366268631267634, 53.027048390115702 ], [ -6.365289679622136, 53.026702487656792 ], [ -6.364949820297232, 53.025858833659157 ], [ -6.36454974258637, 53.025242361849898 ], [ -6.363819576516852, 53.024772335852347 ], [ -6.363770647438424, 53.02425605151462 ], [ -6.36278964430872, 53.023742572128363 ], [ -6.362520616218654, 53.023393388508929 ], [ -6.361547516993045, 53.022905801327411 ], [ -6.360030178424763, 53.022338441154616 ], [ -6.359317236212288, 53.021967756786879 ], [ -6.357611820627256, 53.021634858781184 ], [ -6.357155969203085, 53.021473975729386 ], [ -6.3565545177097, 53.021563536178107 ], [ -6.355426035004848, 53.021550536536068 ], [ -6.354401164364214, 53.021082755522279 ], [ -6.353500954618823, 53.020250542412981 ], [ -6.352983462291345, 53.02014028733884 ], [ -6.354033694131701, 53.019505306317214 ], [ -6.356395694514066, 53.017865234736611 ], [ -6.357271806588479, 53.017310144029999 ], [ -6.358226296336532, 53.016480482594439 ], [ -6.350680430052053, 53.013955693489393 ], [ -6.341672454453288, 53.011247715065096 ], [ -6.335245081062404, 53.013481329201909 ], [ -6.334766221704874, 53.013402002843222 ], [ -6.334699749791487, 53.01303770638885 ], [ -6.334238497101692, 53.012498372888338 ], [ -6.33526339259737, 53.011955593584744 ], [ -6.33495606930606, 53.011651016429362 ], [ -6.335824809257021, 53.011352033764005 ], [ -6.336012873795076, 53.011089443882668 ], [ -6.337134602579185, 53.010868230547999 ], [ -6.338638981062365, 53.010421015574885 ], [ -6.338984614533215, 53.010685315234156 ], [ -6.339519841087901, 53.010630779833932 ], [ -6.340734154516528, 53.009936823415977 ], [ -6.341177380629107, 53.010095348014161 ], [ -6.342252443450215, 53.009625019495161 ], [ -6.3422112968918, 53.009483341250096 ], [ -6.343358966514447, 53.009070637638786 ], [ -6.343605007014338, 53.008749616587401 ], [ -6.345481000583558, 53.008369507680435 ], [ -6.345160009233225, 53.00747356675349 ], [ -6.345314596435519, 53.007448037678309 ], [ -6.34648041496311, 53.007252694360545 ], [ -6.346952839934391, 53.007013637077449 ], [ -6.34705161718795, 53.006818183728463 ], [ -6.347043199853563, 53.006758658661838 ], [ -6.346987670084055, 53.006652193405571 ], [ -6.346995519636082, 53.006626868050553 ], [ -6.347035258426295, 53.006599919266634 ], [ -6.346915549892579, 53.006246751663902 ], [ -6.347090849395087, 53.005974980537673 ], [ -6.347350807658557, 53.00587056570852 ], [ -6.34742275298012, 53.005827257118497 ], [ -6.34785055471141, 53.005462649057137 ], [ -6.348480734609459, 53.005236472386756 ], [ -6.349105841555748, 53.004862916889834 ], [ -6.349507529485652, 53.004718313706739 ], [ -6.349465924934937, 53.004613930125117 ], [ -6.349803394604443, 53.004419632954168 ], [ -6.35017565603447, 53.004472883837934 ], [ -6.350649384301478, 53.003856802991649 ], [ -6.350518941054627, 53.00345585704698 ], [ -6.350033369941623, 53.003345311661839 ], [ -6.349192746954193, 53.002830787553201 ] ] ] ] } },
{ "type": "Feature", "properties": { "Map_Ref": 4.0, "ID": "Glendalough", "Habiitat": "Woodland", "Plan_Descr": "County Development Plan 2022-2028- Volume 1- Chapter 17 - Natural Heritage & Biodiversity", "Shape__Area": 1688278.059173584, "Shape__Length": 13981.641657433902 }, "geometry": { "type": "MultiPolygon", "coordinates": [ [ [ [ -6.349186671624344, 53.002829883407131 ], [ -6.345218286464453, 53.007353672350675 ], [ -6.345007808221251, 53.006839445265555 ], [ -6.345248723922663, 53.006324129410096 ], [ -6.342674349684418, 53.006645966154196 ], [ -6.342913453279071, 53.007551197939996 ], [ -6.341395249938849, 53.00769305637904 ], [ -6.34096582417893, 53.007454106980212 ], [ -6.340494840935902, 53.007840287135636 ], [ -6.339374395060605, 53.007941027872569 ], [ -6.339001913375655, 53.008232232043866 ], [ -6.338757700182433, 53.008108206669718 ], [ -6.3379784678094, 53.008283624863715 ], [ -6.338396040138948, 53.008018488727252 ], [ -6.338391224913499, 53.007635283012242 ], [ -6.337656448144741, 53.007348104069202 ], [ -6.336780705850705, 53.007444961425932 ], [ -6.336357981540551, 53.007661846684861 ], [ -6.335175803482253, 53.007916718424219 ], [ -6.33373332605228, 53.008691543995624 ], [ -6.333312555614594, 53.009268306741355 ], [ -6.333575185383332, 53.00970186278564 ], [ -6.333149244634884, 53.009870428677516 ], [ -6.331857581736548, 53.009533520967402 ], [ -6.33089039108025, 53.009584653905442 ], [ -6.329784729417129, 53.009870385715359 ], [ -6.326912579013352, 53.009434002593046 ], [ -6.325739466834061, 53.009451996691077 ], [ -6.324804164282041, 53.009628366579392 ], [ -6.323090529977579, 53.009273012246034 ], [ -6.320553097688464, 53.009175803789574 ], [ -6.318925371365393, 53.008995512152453 ], [ -6.319015600319947, 53.008675573278623 ], [ -6.316564031333321, 53.007892304220711 ], [ -6.315806297862579, 53.00778791965724 ], [ -6.31512236240007, 53.007969032907802 ], [ -6.315253056567788, 53.007087408938403 ], [ -6.314586812071777, 53.006909446258561 ], [ -6.315098475171636, 53.005929597045096 ], [ -6.31352865446366, 53.005771172434422 ], [ -6.313299628862016, 53.006151601715644 ], [ -6.311964060555867, 53.006064695497734 ], [ -6.311419575585394, 53.006177484822992 ], [ -6.310318494295628, 53.00577240689443 ], [ -6.309352256589323, 53.005517709883343 ], [ -6.308962365302485, 53.006023196722296 ], [ -6.308401839559775, 53.005892450965064 ], [ -6.307741299668606, 53.005946680562374 ], [ -6.306079784028634, 53.005494575639567 ], [ -6.305463166208824, 53.004904649678231 ], [ -6.305728346685902, 53.004647431389664 ], [ -6.306301910515389, 53.004827447739757 ], [ -6.307274963748427, 53.004910334162766 ], [ -6.307994609182534, 53.004101902294707 ], [ -6.306226114697704, 52.997977203609736 ], [ -6.302469823841791, 52.996966344774044 ], [ -6.30118031307923, 52.998404898379036 ], [ -6.30044166482287, 52.998376542958276 ], [ -6.300543882713831, 52.998038902391087 ], [ -6.29968653697404, 52.99802664014365 ], [ -6.299692147174498, 52.997883907487171 ], [ -6.297336735421099, 52.997600332403557 ], [ -6.298407164744573, 52.996705488988972 ], [ -6.2989094773971, 52.995213458783219 ], [ -6.300121159346425, 52.993822889126299 ], [ -6.30036018282052, 52.9932954997903 ], [ -6.29922536407337, 52.992706395388957 ], [ -6.298275098861278, 52.991639176077861 ], [ -6.297717790684755, 52.991347816037688 ], [ -6.298116726036525, 52.990968321199631 ], [ -6.298103071394809, 52.990640887037721 ], [ -6.299051532884204, 52.989728382318191 ], [ -6.300331516594038, 52.989806553333594 ], [ -6.30099535217991, 52.989756187734393 ], [ -6.301639570278669, 52.989513923347268 ], [ -6.302819752618634, 52.989778301849285 ], [ -6.303969074326364, 52.989830569780395 ], [ -6.303267133568543, 52.990686775143629 ], [ -6.302974151711117, 52.991241260862331 ], [ -6.302998179847674, 52.99214773376638 ], [ -6.303502867172661, 52.993114903805996 ], [ -6.303594217240792, 52.993990340513264 ], [ -6.303958932446847, 52.992618467472752 ], [ -6.304979407491184, 52.993239778525371 ], [ -6.30537941882117, 52.994007809835679 ], [ -6.305739657894839, 52.994270351083649 ], [ -6.305661202651076, 52.994752225147934 ], [ -6.306927799085516, 52.995688267401363 ], [ -6.307001920592375, 52.997172184931443 ], [ -6.307497982394148, 52.998366689605248 ], [ -6.307543748961783, 52.999395160256654 ], [ -6.307742053845407, 52.999731243554109 ], [ -6.308805905332204, 53.000273237760872 ], [ -6.308960759112632, 53.000718529069232 ], [ -6.309953596489162, 53.001387125938265 ], [ -6.312422811381365, 53.002026984542219 ], [ -6.313229644815836, 53.002038437535958 ], [ -6.313989040866979, 53.002248736169356 ], [ -6.315462777376386, 53.002804482276744 ], [ -6.316684687865233, 53.003021497401413 ], [ -6.317785974801066, 53.003635840496365 ], [ -6.318169389135115, 53.003641266347067 ], [ -6.318763963641924, 53.004008820865813 ], [ -6.320481729050018, 53.005438130477557 ], [ -6.321030535440914, 53.00562150070261 ], [ -6.322935232037261, 53.005979670797913 ], [ -6.324109351896649, 53.006075950638063 ], [ -6.324852391932468, 53.006365847662757 ], [ -6.326961029601766, 53.006603068723827 ], [ -6.329871183478708, 53.00594557303355 ], [ -6.330482742930463, 53.005539119729413 ], [ -6.333060405488777, 53.004928643757395 ], [ -6.334876601618414, 53.004842385563926 ], [ -6.336538102637097, 53.00465012875339 ], [ -6.337434584450925, 53.004399067252677 ], [ -6.341075089168611, 53.002642000561544 ], [ -6.343155283423912, 53.002223886180431 ], [ -6.344179958212558, 53.001735223162271 ], [ -6.344780032558504, 53.000917357173179 ], [ -6.345238536107717, 53.000700221587991 ], [ -6.345888341645639, 53.000653364189255 ], [ -6.345974204530286, 53.001524731738797 ], [ -6.346198315912034, 53.002238315296395 ], [ -6.347135150178863, 53.002658391847866 ], [ -6.347731195684561, 53.002642862067702 ], [ -6.349186671624344, 53.002829883407131 ] ] ], [ [ [ -6.345218286464453, 53.007353672350675 ], [ -6.345314596435519, 53.007448037678309 ], [ -6.349192746954193, 53.002830787553201 ], [ -6.349186671624344, 53.002829883407131 ], [ -6.349189076974627, 53.002827141078292 ], [ -6.350053213815179, 53.003350170245334 ], [ -6.350518788133372, 53.003456663710651 ], [ -6.350650795214032, 53.003858440141535 ], [ -6.35016668310617, 53.004479409307088 ], [ -6.349809599136351, 53.004424481943659 ], [ -6.348480225982945, 53.005233679501799 ], [ -6.347713424485593, 53.005539653452544 ], [ -6.347088990319181, 53.005975404010833 ], [ -6.346872455828601, 53.006338993757176 ], [ -6.34702816577281, 53.006602246990617 ], [ -6.346995097875539, 53.006985104869983 ], [ -6.346450365567836, 53.00726081442243 ], [ -6.345300898914164, 53.00745593575531 ], [ -6.345218286464453, 53.007353672350675 ] ] ] ] } }
]
}
