{
"type": "FeatureCollection",
"name": "spa",
"crs": { "type": "name", "properties": { "name": "urn:ogc:def:crs:OGC:1.3:CRS84" } },
"features": [
{ "type": "Feature", "properties": { "SITECODE": "004040", "SITE_NAME": "Wicklow Mountains SPA", "VERSION": 2.05, "COUNTY": "wi", "HA": 28646.6718, "Source_CRS": "Irish Grid", "SourcScale": "1:10560", "URL": "https://www.npws.ie/protected-sites/spa/004040" }, "geometry": { "type": "MultiPolygon", "coordinates": [ [ [ [ -6.362092205789592, 52.960982107623494 ], [ -6.359850726925125, 52.960301063603573 ], [ -6.357012795458854, 52.960695032602999 ], [ -6.355419284507611, 52.961274945506702 ], [ -6.353724320522354, 52.960570459020794 ], [ -6.355753256980158, 52.958002280849129 ], [ -6.357430079146297, 52.958005957650336 ], [ -6.357473607190809, 52.958256218307142 ], [ -6.358362048224365, 52.958373808829784 ], [ -6.35854619647544, 52.957981365310083 ], [ -6.361071551796377, 52.958247914963394 ], [ -6.363866032862268, 52.959011533813523 ], [ -6.365952978943806, 52.95997949032521 ], [ -6.373476436073116, 52.964573465856184 ], [ -6.371252740129913, 52.965945606369623 ], [ -6.370844857010757, 52.965833298917005 ], [ -6.367469239864417, 52.964455413410988 ], [ -6.365059343070498, 52.962647433595386 ], [ -6.362092205789592, 52.960982107623494 ] ] ], [ [ [ -6.411923239390947, 53.027206182269765 ], [ -6.412818154990557, 53.028052183040295 ], [ -6.412704251854412, 53.030468285221545 ], [ -6.413012573653197, 53.031750715962133 ], [ -6.412783899173771, 53.032535516979756 ], [ -6.411867792748184, 53.033290076477122 ], [ -6.409909872309071, 53.030756703043224 ], [ -6.411772942002965, 53.029584589037427 ], [ -6.411902119561722, 53.028554001792862 ], [ -6.411153892092061, 53.027506496147367 ], [ -6.411923239390947, 53.027206182269765 ] ] ], [ [ [ -6.392719861412231, 53.03368751700993 ], [ -6.390911944113923, 53.033572637777404 ], [ -6.388974063043745, 53.033007912258761 ], [ -6.38722987299021, 53.032097839388413 ], [ -6.38667642225073, 53.030913389614398 ], [ -6.386322622167841, 53.030632816702884 ], [ -6.387016623841093, 53.030597583494519 ], [ -6.387406959193304, 53.03145953685403 ], [ -6.388549408137806, 53.032028254104276 ], [ -6.392339462780176, 53.033018361686111 ], [ -6.393517454066997, 53.032721725228363 ], [ -6.393744405129572, 53.032268449842952 ], [ -6.395231522923521, 53.031925986026629 ], [ -6.3956778709125, 53.030581659923939 ], [ -6.396100689501262, 53.030435157486338 ], [ -6.396941849322622, 53.031028512504967 ], [ -6.396383626487486, 53.031007645177134 ], [ -6.396422234580982, 53.032301929212025 ], [ -6.394587302458683, 53.033379266053672 ], [ -6.394278212344982, 53.033974513630923 ], [ -6.392719861412231, 53.03368751700993 ] ] ], [ [ [ -6.277281280892663, 53.076172044471662 ], [ -6.277218289247984, 53.073779458897683 ], [ -6.276425215073715, 53.073741851655683 ], [ -6.275820749811684, 53.074538647794057 ], [ -6.271737324555433, 53.076178536908159 ], [ -6.271185762436961, 53.073290484274793 ], [ -6.27005010589247, 53.071865896953945 ], [ -6.267692148309979, 53.070204736391005 ], [ -6.274287990585676, 53.066752069997165 ], [ -6.275182121192621, 53.067803965024098 ], [ -6.275676407936777, 53.070345329659133 ], [ -6.277204975715293, 53.072548254020667 ], [ -6.280278645856876, 53.075159083442891 ], [ -6.2795857981167, 53.07590491357832 ], [ -6.278195804978599, 53.076310817576257 ], [ -6.277281280892663, 53.076172044471662 ] ] ], [ [ [ -6.204613888320085, 53.145928823092035 ], [ -6.209668803442316, 53.140594948164221 ], [ -6.21298425389583, 53.142056777782443 ], [ -6.214112479585576, 53.144749862864856 ], [ -6.210430091224237, 53.144805340822678 ], [ -6.206717070662347, 53.14528162629928 ], [ -6.204613888320085, 53.145928823092035 ] ] ], [ [ [ -6.305000968323615, 53.07949790991006 ], [ -6.304754891711699, 53.080431101104537 ], [ -6.307399420492957, 53.080829903636896 ], [ -6.308567032999328, 53.080121277471186 ], [ -6.310698459745121, 53.08099910134527 ], [ -6.312240262146023, 53.080833255075888 ], [ -6.312189631918756, 53.080542021497834 ], [ -6.311060095729502, 53.080172427636825 ], [ -6.306583822478177, 53.079235975960216 ], [ -6.289577584479304, 53.072862180903613 ], [ -6.290558972405408, 53.071959949231918 ], [ -6.290211660457384, 53.07109941396179 ], [ -6.290762833336911, 53.06988615622312 ], [ -6.292578657118741, 53.068808583297731 ], [ -6.304415409970399, 53.06762966794475 ], [ -6.305679230871619, 53.066754506265085 ], [ -6.307092698716598, 53.066389198144037 ], [ -6.308521740735392, 53.065328626076919 ], [ -6.307597585821546, 53.065106121890601 ], [ -6.304187836566339, 53.065934576475179 ], [ -6.299436621400104, 53.06619544613006 ], [ -6.298199675493326, 53.065842584829909 ], [ -6.298653350181124, 53.064658927399321 ], [ -6.293602616316279, 53.063501307557296 ], [ -6.289307635865365, 53.06365373702964 ], [ -6.289178481486564, 53.063266162125053 ], [ -6.286402107477292, 53.062649790576017 ], [ -6.289192660571967, 53.060380151750877 ], [ -6.290787885337005, 53.058036688689995 ], [ -6.291569002912739, 53.056296666918008 ], [ -6.291116083310108, 53.055209952279043 ], [ -6.293061779333863, 53.055028116793153 ], [ -6.292627059889062, 53.053185960254737 ], [ -6.293784497427302, 53.050044794309485 ], [ -6.297668521204462, 53.045197895765099 ], [ -6.298210434169997, 53.045376115472813 ], [ -6.302715179633589, 53.043206510342785 ], [ -6.290358607168913, 53.038380359550274 ], [ -6.287448235876812, 53.035178442929023 ], [ -6.295478937541096, 53.036328559561191 ], [ -6.297382783229492, 53.035413375708508 ], [ -6.28746651523166, 53.02844146208237 ], [ -6.285307443556471, 53.02758554337165 ], [ -6.285126917218158, 53.027146108825285 ], [ -6.284318614247701, 53.027079403961451 ], [ -6.284132149987672, 53.027294216056603 ], [ -6.282756394129808, 53.027136464105538 ], [ -6.283650911245918, 53.027143484487112 ], [ -6.284875090391289, 53.026519876209541 ], [ -6.287733620967473, 53.025838646125329 ], [ -6.29154701126537, 53.022244405075291 ], [ -6.29198696041169, 53.022908851133202 ], [ -6.29149506784985, 53.023699761136328 ], [ -6.29175674020208, 53.024903788638198 ], [ -6.292673263355931, 53.026557281384854 ], [ -6.29593145755218, 53.025104538427691 ], [ -6.297432551910528, 53.027660531033199 ], [ -6.297551285035168, 53.029364198699554 ], [ -6.299097300077785, 53.030276414741259 ], [ -6.299724584666662, 53.030127280932078 ], [ -6.301208930619735, 53.031614568199679 ], [ -6.299693889334282, 53.033251066411424 ], [ -6.300672581256589, 53.034094066474438 ], [ -6.304504264660068, 53.035449850737379 ], [ -6.310217470683664, 53.03657979857114 ], [ -6.313474199655083, 53.03914254132436 ], [ -6.314916133089686, 53.038094153273718 ], [ -6.318143425341211, 53.039328873629515 ], [ -6.317578464740775, 53.039897702339466 ], [ -6.318563991261478, 53.040350437234125 ], [ -6.319812758274593, 53.039151261712128 ], [ -6.321528424993716, 53.038296501096518 ], [ -6.323800003161089, 53.039502828553395 ], [ -6.324900216901462, 53.04088034882195 ], [ -6.32547045466382, 53.042949375437125 ], [ -6.326066589941561, 53.043053250373582 ], [ -6.326414360213803, 53.044492051380892 ], [ -6.327184112297385, 53.045323320853292 ], [ -6.322342674553185, 53.046733529751073 ], [ -6.323386082468482, 53.049937465103476 ], [ -6.321809013285027, 53.052682914154303 ], [ -6.322177539220159, 53.053813670299441 ], [ -6.324789546611712, 53.053487244928384 ], [ -6.323759758034652, 53.054213134787105 ], [ -6.326497045408122, 53.056113710925445 ], [ -6.329120114379434, 53.059706706845638 ], [ -6.331641684843277, 53.058905804959998 ], [ -6.332559472318695, 53.06290051827348 ], [ -6.333684710193145, 53.06425583116269 ], [ -6.33519322799417, 53.064934792981383 ], [ -6.337604325273118, 53.064949422093584 ], [ -6.338569757586163, 53.066137889757556 ], [ -6.340433548140056, 53.066456532160423 ], [ -6.340696394726116, 53.063609954158807 ], [ -6.339951360091444, 53.060060724006803 ], [ -6.34118154837466, 53.060266323042569 ], [ -6.345384071739064, 53.059568601902882 ], [ -6.346320522400499, 53.058328440199787 ], [ -6.348557798199903, 53.05667527366888 ], [ -6.345489665622946, 53.052703444641807 ], [ -6.343948631010759, 53.051518248638146 ], [ -6.344681750507209, 53.050667019925029 ], [ -6.344222698001328, 53.050071454518665 ], [ -6.344428678102245, 53.048029763604077 ], [ -6.342511495700716, 53.046900249507637 ], [ -6.340575790781548, 53.045042681223805 ], [ -6.341488211154397, 53.043464806720387 ], [ -6.34326421682675, 53.042050607785136 ], [ -6.341894337384558, 53.041758689610923 ], [ -6.340465128435852, 53.040877032635571 ], [ -6.341720920938564, 53.039649224622231 ], [ -6.343361929189804, 53.039648932275661 ], [ -6.344369246447172, 53.040062720254021 ], [ -6.344157102625552, 53.03919144870332 ], [ -6.344649047926594, 53.03921753470032 ], [ -6.345026340300705, 53.038794665603717 ], [ -6.345593112711377, 53.037122504738171 ], [ -6.34524122226245, 53.0367125149629 ], [ -6.342044764078108, 53.036796043158944 ], [ -6.341426722014226, 53.036220433306809 ], [ -6.341421313243591, 53.033109210000866 ], [ -6.34367992231953, 53.031842010198936 ], [ -6.340586172201736, 53.031322586731029 ], [ -6.336104684849627, 53.031083874796096 ], [ -6.330868441139904, 53.032681966493925 ], [ -6.317183147201312, 53.02858904562563 ], [ -6.316712550826185, 53.026882386855853 ], [ -6.316959918327006, 53.0258889468208 ], [ -6.317647404686687, 53.025219071981212 ], [ -6.31852783712297, 53.024952665959049 ], [ -6.318961230703796, 53.02383323319777 ], [ -6.319006958124564, 53.023136581846984 ], [ -6.318281336712695, 53.022717151784143 ], [ -6.31948312696008, 53.022557224393502 ], [ -6.32045911572312, 53.021891551541223 ], [ -6.319622486148851, 53.020745741758375 ], [ -6.318346746088595, 53.020162252671348 ], [ -6.31733657534408, 53.02009109114644 ], [ -6.318791663183527, 53.019691276827693 ], [ -6.319022682363588, 53.018600855876571 ], [ -6.317548714492164, 53.017907418552255 ], [ -6.317469207037584, 53.01676753137631 ], [ -6.314661522476491, 53.016184353970687 ], [ -6.313490846240201, 53.0162789599852 ], [ -6.313313329068397, 53.015959103873726 ], [ -6.311653676065148, 53.016066129225202 ], [ -6.311850313625905, 53.014405428635428 ], [ -6.310297793656398, 53.013690985977114 ], [ -6.311328192423158, 53.01309707019373 ], [ -6.311928899908813, 53.013132140522835 ], [ -6.317231213718673, 53.01418418538757 ], [ -6.319212291284804, 53.014167560333469 ], [ -6.319399220666145, 53.014964950067551 ], [ -6.323184183358512, 53.015407770382446 ], [ -6.323919514284577, 53.015130431721339 ], [ -6.324660738412506, 53.016142737275892 ], [ -6.328948285853932, 53.018586337831579 ], [ -6.330229775034383, 53.018963243657339 ], [ -6.331396404959572, 53.018696831246551 ], [ -6.333856100671594, 53.019232187461022 ], [ -6.333659800949067, 53.02268123689722 ], [ -6.334007145594821, 53.022865133322988 ], [ -6.339682522594052, 53.024362011044275 ], [ -6.339622567128234, 53.024601140524489 ], [ -6.348586810239972, 53.025109890485503 ], [ -6.350233158774216, 53.024088912573568 ], [ -6.352387529451984, 53.021908115648145 ], [ -6.353700844358632, 53.022264285889783 ], [ -6.353534539802328, 53.021409390071 ], [ -6.355287451917515, 53.021473110009225 ], [ -6.355766885050222, 53.021125198391708 ], [ -6.353880945221915, 53.019895611767005 ], [ -6.35141595222361, 53.018930089308256 ], [ -6.349988634415523, 53.018818595493052 ], [ -6.34994189769047, 53.018469159095062 ], [ -6.349023564794384, 53.018468484508034 ], [ -6.348959082752383, 53.018681439758836 ], [ -6.347388014653248, 53.018164369313787 ], [ -6.346819391307569, 53.018249838070595 ], [ -6.344872045276254, 53.017320300609256 ], [ -6.343645698611346, 53.01736177315825 ], [ -6.34021709619795, 53.015996725694542 ], [ -6.337984983410024, 53.015661262057876 ], [ -6.335382723229924, 53.014780960849663 ], [ -6.336098250482, 53.013612341471756 ], [ -6.334858214963375, 53.013153373710132 ], [ -6.335003781435392, 53.011694964201375 ], [ -6.33804901220243, 53.010567507190615 ], [ -6.339652795064027, 53.010586409262139 ], [ -6.340697457892227, 53.009947929753608 ], [ -6.341083461331992, 53.010117461789939 ], [ -6.342295169498002, 53.009626628204657 ], [ -6.343573510674535, 53.008793398704171 ], [ -6.345507765494596, 53.008387299962557 ], [ -6.345266133749907, 53.007547488990653 ], [ -6.353068574055269, 53.006649081846362 ], [ -6.357136449061922, 53.006668867463546 ], [ -6.367348269923365, 53.006064954962937 ], [ -6.36757299870159, 53.00436650772594 ], [ -6.36705276655799, 53.003509155097227 ], [ -6.366185384450189, 53.003375917872823 ], [ -6.361306851236467, 53.003688017336088 ], [ -6.35912003469906, 53.003300073033991 ], [ -6.353211512382055, 53.004472537294774 ], [ -6.346507906539128, 53.004745110709045 ], [ -6.34379989581178, 53.005131459442133 ], [ -6.341386663800157, 53.006121430569003 ], [ -6.336592329381475, 53.007172693774102 ], [ -6.333866283240096, 53.008250387365258 ], [ -6.333267958329711, 53.004784573624725 ], [ -6.33422666149019, 53.00404384663814 ], [ -6.333908215839814, 53.00345202877017 ], [ -6.332971585389396, 53.003137145751154 ], [ -6.32532026459925, 53.005512118832776 ], [ -6.321828339758512, 53.001762378328351 ], [ -6.314982158400142, 52.998995949403991 ], [ -6.313579688894564, 52.997501980789266 ], [ -6.312305818513824, 52.994730358781624 ], [ -6.314809607459201, 52.993961590006386 ], [ -6.321472625535931, 52.994038188286865 ], [ -6.325110943895353, 52.993605507238037 ], [ -6.328731265067823, 52.991733070293208 ], [ -6.330411815948156, 52.992639057846816 ], [ -6.331594208485714, 52.992343659930476 ], [ -6.332370803969038, 52.992698716896385 ], [ -6.336176964107192, 52.988573039896146 ], [ -6.334754116065948, 52.986364744725144 ], [ -6.335807111943049, 52.985665486201022 ], [ -6.337962112072261, 52.984987392816315 ], [ -6.341048571254424, 52.984857387846787 ], [ -6.344180492573662, 52.982151887410062 ], [ -6.348111229174482, 52.98355892598736 ], [ -6.354392666563258, 52.985222228560758 ], [ -6.351581822575249, 52.987145284510298 ], [ -6.349097047917365, 52.987626536134584 ], [ -6.347186404359952, 52.990095987484359 ], [ -6.346866446038023, 52.992112102269694 ], [ -6.342482146887797, 52.994337687641099 ], [ -6.341108546994144, 52.995590257817561 ], [ -6.339663530826592, 53.003697972357628 ], [ -6.339893920920419, 53.004548310163088 ], [ -6.342598138078283, 53.002973250187246 ], [ -6.344444408246027, 53.001088923659225 ], [ -6.346383116414193, 52.999948225980809 ], [ -6.347313992770758, 53.000499662781671 ], [ -6.347340100091161, 53.00236276201408 ], [ -6.350424916721254, 53.002368544990922 ], [ -6.351056185112683, 53.00196518871293 ], [ -6.35206710770325, 53.002458863638275 ], [ -6.354309910395869, 53.002290269252647 ], [ -6.362093494856586, 53.001207915256131 ], [ -6.364085699561864, 53.0013851743782 ], [ -6.368914745974142, 53.000773060591655 ], [ -6.371426333582842, 53.000731256267208 ], [ -6.379021365343613, 52.9978413185138 ], [ -6.38142592675224, 52.997569811408681 ], [ -6.383500611517756, 52.996907492659851 ], [ -6.386023786839254, 52.995550424234793 ], [ -6.386389115352895, 52.995065060524837 ], [ -6.385913435131727, 52.994827901256691 ], [ -6.386508116731193, 52.99425789320118 ], [ -6.385005461712113, 52.993927308784571 ], [ -6.386160042045044, 52.993332614587594 ], [ -6.384331543544507, 52.993614996634548 ], [ -6.383046244863533, 52.992550592243504 ], [ -6.381752402055714, 52.992612315162965 ], [ -6.381855860925792, 52.991189927941747 ], [ -6.381341402165737, 52.991020743636369 ], [ -6.381762366227491, 52.989757416070553 ], [ -6.382347741965884, 52.989386127253013 ], [ -6.381294178353139, 52.988936499108455 ], [ -6.38131644975025, 52.98815441583131 ], [ -6.382697639586503, 52.986972259839575 ], [ -6.38232917745735, 52.986234986334715 ], [ -6.384057394294481, 52.987483749862818 ], [ -6.387976346472267, 52.988554692181182 ], [ -6.39367760003877, 52.983214726376218 ], [ -6.399029768286229, 52.980054345030069 ], [ -6.406558283095977, 52.984926506051792 ], [ -6.406049216536832, 52.985621185650103 ], [ -6.407503307257841, 52.985459545343829 ], [ -6.410108751248028, 52.987093459231758 ], [ -6.412695562305604, 52.988187597049226 ], [ -6.413485472744939, 52.987903417131896 ], [ -6.411597208731974, 52.98697266901241 ], [ -6.41058874572469, 52.986035967064048 ], [ -6.413139470863888, 52.985790350434335 ], [ -6.414079602987307, 52.985342063315109 ], [ -6.415830174269569, 52.985139486287054 ], [ -6.417077895914994, 52.985936810194602 ], [ -6.418866845903595, 52.985473671425666 ], [ -6.419941922559832, 52.985775677346616 ], [ -6.420811426403131, 52.985552182952169 ], [ -6.422445420610714, 52.985866225232577 ], [ -6.424741397886812, 52.985585665158141 ], [ -6.42462344813272, 52.981475048828649 ], [ -6.423928818003085, 52.981192313362641 ], [ -6.42109568879006, 52.98179077726568 ], [ -6.420019946281256, 52.981675241444584 ], [ -6.421008838634631, 52.980038809307317 ], [ -6.420213740473085, 52.979221005406622 ], [ -6.419562159777882, 52.979379433021791 ], [ -6.419261713646706, 52.97910851049302 ], [ -6.419639552148606, 52.978878063177056 ], [ -6.41872298029165, 52.978763228194445 ], [ -6.41822918148882, 52.977875982966559 ], [ -6.419597469039244, 52.976449474217411 ], [ -6.418512742565819, 52.976532630218031 ], [ -6.413113610991028, 52.97461547566855 ], [ -6.412118206998575, 52.974864471555613 ], [ -6.412959208007467, 52.974131795727565 ], [ -6.4125047946547, 52.973862449706367 ], [ -6.412344108758344, 52.972535359027496 ], [ -6.411504747053772, 52.972044628655105 ], [ -6.408981048533889, 52.971525875087586 ], [ -6.408386705640979, 52.971913601512199 ], [ -6.403186388090349, 52.970674885480037 ], [ -6.400442441309531, 52.973315251715775 ], [ -6.396258254863998, 52.975302156744888 ], [ -6.393666110872567, 52.974207861311235 ], [ -6.391947505624027, 52.972531521623928 ], [ -6.390787615582425, 52.971959498267552 ], [ -6.39034979750589, 52.972124031453113 ], [ -6.388034811685261, 52.970728805767962 ], [ -6.388109165842075, 52.970305904387793 ], [ -6.387215594103343, 52.970230030626908 ], [ -6.38623430413989, 52.969612083950388 ], [ -6.386312587265926, 52.968909391469658 ], [ -6.385757243893551, 52.968308738163351 ], [ -6.384267823480338, 52.967809680172437 ], [ -6.38445362511025, 52.967143273381517 ], [ -6.388082196222021, 52.965806525520058 ], [ -6.38922893266994, 52.964988437728152 ], [ -6.392432592673784, 52.964552311520116 ], [ -6.394453018615928, 52.965293637339947 ], [ -6.396678790747752, 52.965000459161324 ], [ -6.397501909713792, 52.965218113079992 ], [ -6.399527377439547, 52.963799569719917 ], [ -6.403292599372329, 52.962873649073494 ], [ -6.40644032009363, 52.962458018689809 ], [ -6.407447026776287, 52.961894695906508 ], [ -6.415644344047378, 52.960847278458957 ], [ -6.418871364630848, 52.961131217466026 ], [ -6.420204253571302, 52.960876825275861 ], [ -6.420791799341024, 52.959520235602383 ], [ -6.417551235030216, 52.958731520052758 ], [ -6.416292406027855, 52.958615193074984 ], [ -6.415828528068187, 52.958837462679959 ], [ -6.414315529225948, 52.958296062502363 ], [ -6.41260738321324, 52.958639452474436 ], [ -6.412198596473417, 52.959007630862402 ], [ -6.410723000069017, 52.959146428709118 ], [ -6.409198151220643, 52.959904336672452 ], [ -6.407534695812005, 52.960091831616076 ], [ -6.407168199302033, 52.959826872063111 ], [ -6.405861852845923, 52.959977988347717 ], [ -6.403722226408701, 52.959557645752703 ], [ -6.402070917068444, 52.958810349176971 ], [ -6.401189133264385, 52.958735861203188 ], [ -6.401114043270681, 52.958464553194901 ], [ -6.399594444426389, 52.958597987341271 ], [ -6.39917714442651, 52.959281658756488 ], [ -6.396917796930362, 52.958429490564313 ], [ -6.399009952744295, 52.957022808299087 ], [ -6.400364855283668, 52.955391051061383 ], [ -6.40316434255533, 52.954783086770632 ], [ -6.404377168411555, 52.95512191314657 ], [ -6.404325587020309, 52.955815428185495 ], [ -6.406862430985055, 52.956152768126216 ], [ -6.407119618940436, 52.955468889979969 ], [ -6.408507666410805, 52.955279819650798 ], [ -6.40819768530707, 52.954920418371515 ], [ -6.408959824920784, 52.954591527706768 ], [ -6.408450724401081, 52.954310760717895 ], [ -6.408768461231237, 52.954053706569908 ], [ -6.410302903167855, 52.954182226452509 ], [ -6.408316257916973, 52.952882491167969 ], [ -6.407591897119576, 52.952791343828032 ], [ -6.406166195627319, 52.951541073249281 ], [ -6.405231480274069, 52.951746312556345 ], [ -6.405299042015787, 52.951249731285948 ], [ -6.404400113056338, 52.950975648272994 ], [ -6.404003545225903, 52.950380861705312 ], [ -6.397836087165985, 52.94898988456697 ], [ -6.398849198576042, 52.948348370107148 ], [ -6.398327097343786, 52.947668184815377 ], [ -6.396661644714643, 52.947933709182536 ], [ -6.396006025747738, 52.947721678771245 ], [ -6.396787457553855, 52.946895497359193 ], [ -6.399875796396373, 52.9452879678065 ], [ -6.401240062326178, 52.944109724466593 ], [ -6.40268724988523, 52.943416729387465 ], [ -6.4036696923591, 52.943577231256477 ], [ -6.404426820026655, 52.944983964649531 ], [ -6.40350821296667, 52.946522640651359 ], [ -6.404438987144612, 52.946888849424376 ], [ -6.410160502434513, 52.946263908466499 ], [ -6.411322179455925, 52.946496388939323 ], [ -6.412315619278316, 52.946194441150389 ], [ -6.412602073701422, 52.945634084986636 ], [ -6.414569992321691, 52.945241509208728 ], [ -6.4167696520925, 52.945592815351404 ], [ -6.419020302405634, 52.945503156387289 ], [ -6.420630487833245, 52.94633967866325 ], [ -6.420358633604619, 52.946502174540541 ], [ -6.420817334299795, 52.946787696895889 ], [ -6.41981363544381, 52.947576396194165 ], [ -6.419921836617149, 52.947924236114076 ], [ -6.420386807971187, 52.947591600600305 ], [ -6.421033586800086, 52.948419515024796 ], [ -6.420234084303486, 52.949409055612911 ], [ -6.42114683723086, 52.950020195748287 ], [ -6.420869125087147, 52.950342826212449 ], [ -6.421399111366051, 52.951097855285276 ], [ -6.424445171546983, 52.951224506002539 ], [ -6.426939780619099, 52.951825397218286 ], [ -6.43033932428105, 52.951245100003 ], [ -6.432245813336442, 52.949648353824422 ], [ -6.43170885380558, 52.948978513090339 ], [ -6.429784340357927, 52.948070169319898 ], [ -6.428526058969038, 52.946792333675965 ], [ -6.427319537165991, 52.946396406630214 ], [ -6.426828823784118, 52.945416279121808 ], [ -6.429484927486627, 52.943887071727232 ], [ -6.430069325206657, 52.94455375904807 ], [ -6.431694227813637, 52.945129716342699 ], [ -6.434441170749337, 52.945314928436325 ], [ -6.434460495560345, 52.944882849288803 ], [ -6.436639436401594, 52.945902725311178 ], [ -6.437696483065908, 52.94741639158898 ], [ -6.440617672058417, 52.949637924474601 ], [ -6.441478863955597, 52.948846480535551 ], [ -6.442029978661518, 52.94923015857114 ], [ -6.442477108306235, 52.949027366974832 ], [ -6.444432153405706, 52.95050556105825 ], [ -6.446552313115152, 52.950351748944406 ], [ -6.446529192237906, 52.951243213092283 ], [ -6.447435060025652, 52.95131810036866 ], [ -6.448833515476844, 52.952362229408486 ], [ -6.448887423363658, 52.952570884777145 ], [ -6.448406714580534, 52.952568538923799 ], [ -6.446689491213189, 52.952323122685151 ], [ -6.445802059913279, 52.953081966122298 ], [ -6.445346568405904, 52.954670542349902 ], [ -6.445800663902793, 52.95520808814689 ], [ -6.449412190441937, 52.956903591618207 ], [ -6.451284762680564, 52.955475440418901 ], [ -6.452455352195187, 52.955575503006131 ], [ -6.455400375973738, 52.956903804141952 ], [ -6.455745169334641, 52.956402236637729 ], [ -6.456007263278027, 52.957124980159037 ], [ -6.456682967593604, 52.957176866507062 ], [ -6.457415905837151, 52.95654862806569 ], [ -6.457560795192868, 52.957729840007993 ], [ -6.458210709170438, 52.957957881905017 ], [ -6.458477897839153, 52.956983510939004 ], [ -6.459155598022535, 52.957149285029175 ], [ -6.45938525095218, 52.956758964833938 ], [ -6.458807336721711, 52.95402338132584 ], [ -6.459726538693536, 52.953189031174873 ], [ -6.459388479196372, 52.952783908672998 ], [ -6.459712729653588, 52.952086187050398 ], [ -6.459026983123572, 52.951547374742439 ], [ -6.459941322199071, 52.949042603017659 ], [ -6.460542642262569, 52.949391882649522 ], [ -6.460978883431141, 52.950724019320816 ], [ -6.462690343644027, 52.952233294300093 ], [ -6.463257432658954, 52.953641533639171 ], [ -6.464045651342662, 52.953928621769784 ], [ -6.465420871918249, 52.955300957972554 ], [ -6.468320245273663, 52.955839646905297 ], [ -6.472109053885438, 52.957452913200399 ], [ -6.472441273224345, 52.958120355500924 ], [ -6.475513193610062, 52.959974788511978 ], [ -6.481809782037386, 52.962399884200678 ], [ -6.492189425741254, 52.964101729146662 ], [ -6.497452321950634, 52.964684975794647 ], [ -6.498289299476114, 52.9645572505218 ], [ -6.506067659187537, 52.966664742624872 ], [ -6.510219979682578, 52.966797333178746 ], [ -6.510866148999301, 52.96707853428606 ], [ -6.515332525336132, 52.967508623386514 ], [ -6.514624149042531, 52.969677699956044 ], [ -6.514703724224892, 52.97214517045726 ], [ -6.51385380303356, 52.973392774145424 ], [ -6.523643584300874, 52.975792985899503 ], [ -6.522640891833434, 52.977160069206903 ], [ -6.52371223812407, 52.977477093886122 ], [ -6.523248850921503, 52.978200072689837 ], [ -6.520478903822748, 52.979760413838044 ], [ -6.522668267559889, 52.981661584364666 ], [ -6.518753257901576, 52.982641787381013 ], [ -6.513352626302032, 52.983044167148385 ], [ -6.512888142858449, 52.984956940236167 ], [ -6.517184476268111, 52.985718719431752 ], [ -6.518322854901324, 52.985673102920686 ], [ -6.519210600449383, 52.986900551693353 ], [ -6.513241259232909, 52.986990868601247 ], [ -6.510699938624414, 52.986640595887451 ], [ -6.50967471611413, 52.987304668388035 ], [ -6.509079431554181, 52.987293971804149 ], [ -6.509732725568359, 52.992944606040538 ], [ -6.510938615333227, 52.993160929241633 ], [ -6.511078561006804, 52.99426070029368 ], [ -6.510564684113931, 52.99503270275072 ], [ -6.506512167314757, 52.994289902184534 ], [ -6.504046145939623, 52.999773831684614 ], [ -6.503093535401148, 53.003546769711093 ], [ -6.503385953291979, 53.004823000313351 ], [ -6.510624217562593, 53.010879004007457 ], [ -6.507541715323808, 53.01325850287359 ], [ -6.505523883769714, 53.014195109434866 ], [ -6.506673164925063, 53.015284961598965 ], [ -6.508445499468123, 53.015418416991984 ], [ -6.510401738267062, 53.01599911386662 ], [ -6.524324730874351, 53.016594550687387 ], [ -6.524537573974134, 53.018490209145511 ], [ -6.525387909089466, 53.020743118433316 ], [ -6.52597547300964, 53.021171355465725 ], [ -6.525194825622803, 53.021188071447916 ], [ -6.525561472982512, 53.024406478442145 ], [ -6.543213622613927, 53.026736834816013 ], [ -6.549221857692787, 53.027216788859334 ], [ -6.551232183323651, 53.032301398710153 ], [ -6.549315498875727, 53.032516584837133 ], [ -6.527104728766511, 53.02951127511232 ], [ -6.527090483220966, 53.032115711011279 ], [ -6.530519807697711, 53.034928157646021 ], [ -6.530204239642348, 53.035207183944131 ], [ -6.530811692289002, 53.035427552628114 ], [ -6.530804311745923, 53.035973376807561 ], [ -6.532307050032432, 53.036568319120363 ], [ -6.53263542421358, 53.037297449732051 ], [ -6.532343265148739, 53.037559360258392 ], [ -6.533425662709583, 53.03887305275461 ], [ -6.534888666997475, 53.039201113258919 ], [ -6.534636907767467, 53.039604358652561 ], [ -6.535303384907285, 53.040257473189044 ], [ -6.535162923931749, 53.040813451473603 ], [ -6.536530394777186, 53.0421070377419 ], [ -6.536410547864727, 53.042549959400361 ], [ -6.535312192505819, 53.043075610779219 ], [ -6.534901266218967, 53.044077007022132 ], [ -6.533979280095345, 53.044154804608297 ], [ -6.53319859477003, 53.045710889127569 ], [ -6.531333230167638, 53.045725776051981 ], [ -6.531229575571381, 53.046101777620578 ], [ -6.531869150099282, 53.046135792120076 ], [ -6.531611153742463, 53.046624462368477 ], [ -6.523829942939059, 53.046176959707935 ], [ -6.521344839341998, 53.046489808647721 ], [ -6.517091172544477, 53.048080624023669 ], [ -6.509700080547344, 53.042549992391933 ], [ -6.508039666989949, 53.044499270533613 ], [ -6.504479042929274, 53.044005651959978 ], [ -6.504865807401192, 53.043076504772657 ], [ -6.502417013427578, 53.043122634689112 ], [ -6.500078232511514, 53.051002480419776 ], [ -6.493801127751857, 53.050882283616893 ], [ -6.493026561552584, 53.039144247832688 ], [ -6.491773751292233, 53.039063354120927 ], [ -6.486694474993973, 53.048635354177776 ], [ -6.481492292765892, 53.048053591842141 ], [ -6.480661736789332, 53.048255845869619 ], [ -6.480408443853752, 53.047786163987006 ], [ -6.47891191064835, 53.047222518595703 ], [ -6.478219334188147, 53.047278246060422 ], [ -6.476413517811296, 53.046725212175417 ], [ -6.473455124414661, 53.047483683052889 ], [ -6.471188036315608, 53.04598248883751 ], [ -6.469772463753316, 53.044112259405338 ], [ -6.468474107342835, 53.043735950505926 ], [ -6.461881254028063, 53.046481405410347 ], [ -6.460319826432947, 53.047536748650259 ], [ -6.459551196496822, 53.048547865241595 ], [ -6.458126152908789, 53.04922555552244 ], [ -6.455712585556461, 53.049799690597808 ], [ -6.451371956216771, 53.049163625740107 ], [ -6.446982862099725, 53.049308438334123 ], [ -6.446596502356694, 53.049529314946973 ], [ -6.444518053940016, 53.049386025815544 ], [ -6.444260673939598, 53.048380822738494 ], [ -6.430440001992512, 53.046484220504453 ], [ -6.43067144677992, 53.045898668285872 ], [ -6.429737711483678, 53.046446725267693 ], [ -6.428442533664053, 53.046694853414827 ], [ -6.424457957278848, 53.049397709603262 ], [ -6.423914435176032, 53.049260906560363 ], [ -6.423685496968766, 53.048651433713275 ], [ -6.422420155115959, 53.048934714693708 ], [ -6.420684935229647, 53.047819417339412 ], [ -6.418497266152039, 53.047570738665279 ], [ -6.4171144161233, 53.047029584939189 ], [ -6.415395829231686, 53.047028740684304 ], [ -6.414543103280256, 53.046532110936198 ], [ -6.413332409803288, 53.046596418926171 ], [ -6.41206514853061, 53.045993844616277 ], [ -6.410230196989279, 53.045686677098494 ], [ -6.407379053689663, 53.043355171797778 ], [ -6.404953735391421, 53.042471344042937 ], [ -6.405043444082041, 53.042187087829156 ], [ -6.40401879164524, 53.041922985038177 ], [ -6.403403591991029, 53.041120273000942 ], [ -6.402005677967219, 53.042105161705621 ], [ -6.399759736779613, 53.04169177283206 ], [ -6.399384924750973, 53.042841058282484 ], [ -6.39798374440787, 53.041774431646559 ], [ -6.398694324155349, 53.04108292286702 ], [ -6.398456695881821, 53.039487023489549 ], [ -6.399758526089855, 53.037272412349601 ], [ -6.399871315091983, 53.038403269133603 ], [ -6.400457026669373, 53.038841934749428 ], [ -6.401079716962988, 53.039037198969247 ], [ -6.403381574961919, 53.039207560116743 ], [ -6.405001173316828, 53.039193210761184 ], [ -6.407093427721035, 53.038819257431953 ], [ -6.407709754214526, 53.038505406423639 ], [ -6.408229838766105, 53.0377559686072 ], [ -6.408002912590632, 53.037516615799468 ], [ -6.405960838570607, 53.037971995263348 ], [ -6.405066140339256, 53.03768605250324 ], [ -6.407534392039856, 53.03487044802624 ], [ -6.411651053817093, 53.033572077824346 ], [ -6.412905143609345, 53.03255749547013 ], [ -6.413175463500641, 53.031742218510864 ], [ -6.412779911583192, 53.030602406310564 ], [ -6.412917013714943, 53.027998461274478 ], [ -6.412174184768411, 53.027196615950039 ], [ -6.411945513121799, 53.027157757388537 ], [ -6.411116681139637, 53.027479742178961 ], [ -6.409596933460153, 53.026628179796077 ], [ -6.405759250892318, 53.02599940349829 ], [ -6.404393692096061, 53.026122900328623 ], [ -6.403354052941091, 53.026716087783754 ], [ -6.403104566200868, 53.027871001298479 ], [ -6.405677265162725, 53.03038058210155 ], [ -6.407695671474195, 53.03105072066095 ], [ -6.409868438638575, 53.030768645567406 ], [ -6.41059174575835, 53.032177668114251 ], [ -6.409538443270777, 53.032444266056409 ], [ -6.410753810536253, 53.032394243102026 ], [ -6.411674395965987, 53.033469327292771 ], [ -6.407869852754021, 53.034616721790549 ], [ -6.407071733815254, 53.03518762096158 ], [ -6.404941110289085, 53.037753738903959 ], [ -6.405964650239094, 53.038045481212968 ], [ -6.407965458337051, 53.037622687557345 ], [ -6.407722999072297, 53.038348321728456 ], [ -6.40701681303053, 53.038774281852859 ], [ -6.404686484559408, 53.039147988002028 ], [ -6.400902465965206, 53.038929365403604 ], [ -6.399993815002624, 53.038366444280349 ], [ -6.400111398086456, 53.037305103626316 ], [ -6.399846927491726, 53.037200167720272 ], [ -6.39961943611231, 53.037266609308105 ], [ -6.398381724286998, 53.039385337976078 ], [ -6.398595591514098, 53.040993695478896 ], [ -6.397863479664534, 53.04080859791474 ], [ -6.397465707160324, 53.040993216199858 ], [ -6.398263065677436, 53.041341370976809 ], [ -6.397685065022696, 53.041661587100315 ], [ -6.395607194443433, 53.041767803098537 ], [ -6.393794064660668, 53.041458006621433 ], [ -6.396120636515135, 53.035971477497597 ], [ -6.395943031828518, 53.034857574870635 ], [ -6.394485513664841, 53.03368637840429 ], [ -6.395084335735349, 53.033455480668188 ], [ -6.39647912537981, 53.033881917604063 ], [ -6.39827653113735, 53.03282342353139 ], [ -6.396710564908598, 53.031938637917925 ], [ -6.396803034028431, 53.031668747456564 ], [ -6.397513514895716, 53.031754570513705 ], [ -6.396753841479565, 53.030257639069582 ], [ -6.396127526048327, 53.030301986278317 ], [ -6.395901052781459, 53.030003081058503 ], [ -6.396060839839548, 53.030316531628941 ], [ -6.395576062099991, 53.030312659286267 ], [ -6.392677468421814, 53.028678558858452 ], [ -6.391408058805108, 53.028555799549309 ], [ -6.388971415244734, 53.029255904033285 ], [ -6.387018962920594, 53.030572340769332 ], [ -6.386369086852666, 53.030573632133013 ], [ -6.386233026600882, 53.030674426137793 ], [ -6.387166081861825, 53.032146961408735 ], [ -6.388920012674077, 53.033108136684064 ], [ -6.390841036533796, 53.033675301820189 ], [ -6.391832189653984, 53.033755688952375 ], [ -6.391940988358614, 53.034124339828601 ], [ -6.393089993995468, 53.034883500062094 ], [ -6.391997029396484, 53.034095612080634 ], [ -6.392055434093458, 53.033765588983279 ], [ -6.394621587152908, 53.034086426364475 ], [ -6.395833730100516, 53.034915494888949 ], [ -6.395988964704475, 53.035878994694912 ], [ -6.395165738006469, 53.037196050271817 ], [ -6.395000983553959, 53.038533081395784 ], [ -6.393683459015257, 53.041387570329121 ], [ -6.393009835608839, 53.041772324821025 ], [ -6.397912886478336, 53.041875837560212 ], [ -6.399605977215045, 53.043137775925153 ], [ -6.402254758844094, 53.044113317759681 ], [ -6.40751531837296, 53.048732818605529 ], [ -6.408007577816776, 53.050650278024555 ], [ -6.40784428257654, 53.051729405239456 ], [ -6.40706891892122, 53.0516874295988 ], [ -6.40640505971998, 53.051111972299125 ], [ -6.40493196279234, 53.050744000753987 ], [ -6.397973599753928, 53.056693665855519 ], [ -6.393099020470974, 53.059386158644635 ], [ -6.392278972197285, 53.059364124563125 ], [ -6.391938615145305, 53.06070495218961 ], [ -6.393728555145534, 53.060481734731376 ], [ -6.394788521108509, 53.061034807599498 ], [ -6.394665423416481, 53.06186284095341 ], [ -6.392941989376958, 53.063115351076789 ], [ -6.392856786043221, 53.063700840859035 ], [ -6.394485901495655, 53.06440791437403 ], [ -6.393594146802197, 53.06433086186847 ], [ -6.393502873166516, 53.064791585642226 ], [ -6.394099621694593, 53.064953956895806 ], [ -6.393984491960957, 53.065654883990462 ], [ -6.392615943945304, 53.06597408748793 ], [ -6.393600594921861, 53.067025597702973 ], [ -6.3928152048299, 53.067007965868285 ], [ -6.39268826490047, 53.067499518824548 ], [ -6.393862149071269, 53.067764466970367 ], [ -6.394000561791627, 53.068204422115784 ], [ -6.393231295580836, 53.06898019929622 ], [ -6.393936575570903, 53.069121852560237 ], [ -6.393554326599641, 53.07012175918743 ], [ -6.39214669579959, 53.070897751736275 ], [ -6.392384757495438, 53.072166923965796 ], [ -6.393385518061417, 53.072939652528326 ], [ -6.395737105788042, 53.073739024432975 ], [ -6.398553548548107, 53.073800847500763 ], [ -6.410210194935965, 53.069466292142423 ], [ -6.419963714064945, 53.071792575304897 ], [ -6.420194659985675, 53.069929574705462 ], [ -6.421744481792722, 53.070044084327257 ], [ -6.421213690498566, 53.069425127931233 ], [ -6.422153912075989, 53.069086154354643 ], [ -6.42225615836908, 53.068546785437604 ], [ -6.421200869349329, 53.068029828972918 ], [ -6.430335423162737, 53.065563650367999 ], [ -6.431850744608591, 53.066547001724572 ], [ -6.432930578696182, 53.066788560021152 ], [ -6.435607466998954, 53.069903859265175 ], [ -6.434995441137614, 53.069989461696487 ], [ -6.435102107910788, 53.07032658852453 ], [ -6.434155189793279, 53.07033827675113 ], [ -6.430575653985727, 53.072968882881852 ], [ -6.430501285280371, 53.073385343493911 ], [ -6.429945183561803, 53.073457336919404 ], [ -6.430097544787904, 53.07371672220345 ], [ -6.429255097708628, 53.073956234186923 ], [ -6.42915282915844, 53.074779939470673 ], [ -6.432006708886458, 53.075354105584388 ], [ -6.432905396714239, 53.075171338749968 ], [ -6.43570994704428, 53.075410446331041 ], [ -6.437787947806147, 53.075136433096922 ], [ -6.440033506270522, 53.075295784489597 ], [ -6.440136993262056, 53.075515902081612 ], [ -6.442153407613949, 53.075319635486785 ], [ -6.441731523437865, 53.075884177799296 ], [ -6.442462862364668, 53.076008893273965 ], [ -6.441932110763309, 53.076902117431395 ], [ -6.44237000130238, 53.07722461939656 ], [ -6.441630016564149, 53.07865526289374 ], [ -6.445693615165911, 53.079861903359124 ], [ -6.447432815694713, 53.079546506772161 ], [ -6.448774350166096, 53.080912512997202 ], [ -6.450796863069566, 53.080837915090093 ], [ -6.450890938910256, 53.079828745527593 ], [ -6.451622509345118, 53.080053519030336 ], [ -6.453496654951474, 53.079784440842133 ], [ -6.455816650379866, 53.080608321175113 ], [ -6.456990512141409, 53.08056851258354 ], [ -6.454750585098054, 53.078238105770247 ], [ -6.455974049586747, 53.075455889719123 ], [ -6.456649426283848, 53.074786611488143 ], [ -6.457729034654261, 53.074600528769565 ], [ -6.461251052205637, 53.079317741937224 ], [ -6.462189292119021, 53.079947119485333 ], [ -6.465980480784392, 53.079548583530794 ], [ -6.466328944426381, 53.078680144424624 ], [ -6.471669306921614, 53.080554133925382 ], [ -6.472344635533656, 53.08019760053056 ], [ -6.476289681508689, 53.081857299030212 ], [ -6.477767832527976, 53.081679648639188 ], [ -6.478140333831806, 53.080427744022636 ], [ -6.485312838735497, 53.080988538702037 ], [ -6.48640692669863, 53.079487019709177 ], [ -6.488082216805257, 53.079788301899939 ], [ -6.489272817604458, 53.080773521326989 ], [ -6.492612318094461, 53.081377525282683 ], [ -6.492183156441123, 53.082100812695415 ], [ -6.49276419647075, 53.083797447684688 ], [ -6.494905261532415, 53.085165048104287 ], [ -6.492266721158879, 53.08834154483857 ], [ -6.490899402887157, 53.089146026744501 ], [ -6.490077562706812, 53.090796225130731 ], [ -6.492819661128649, 53.091364833405166 ], [ -6.490716864229049, 53.09446720562466 ], [ -6.486527374703069, 53.098685527187634 ], [ -6.482331342948697, 53.104205498841154 ], [ -6.478743852659768, 53.103151966509941 ], [ -6.474560902866152, 53.106402954611625 ], [ -6.468194042094906, 53.107768223405365 ], [ -6.467039920835, 53.108701687789711 ], [ -6.465210397525628, 53.109440669653218 ], [ -6.460422621461385, 53.109836836039008 ], [ -6.456846094428992, 53.111202047993899 ], [ -6.459508699538537, 53.112112424094157 ], [ -6.460959275982864, 53.114266266731498 ], [ -6.46235827081319, 53.115162473764585 ], [ -6.462198115737235, 53.115569559279805 ], [ -6.464063126303092, 53.116854804546911 ], [ -6.465076064790793, 53.117101376263712 ], [ -6.465404220955915, 53.117703331657545 ], [ -6.466547479081907, 53.117646601141367 ], [ -6.467391965812654, 53.118259977655811 ], [ -6.466961697983499, 53.119293326473169 ], [ -6.468761911128566, 53.122173134723717 ], [ -6.468203307035174, 53.123008262758603 ], [ -6.468416622192208, 53.123586405288499 ], [ -6.470416199961035, 53.125973948302459 ], [ -6.472094420491569, 53.129016411865621 ], [ -6.473021972212313, 53.129652575593397 ], [ -6.473130546238393, 53.130553711241376 ], [ -6.470176064470615, 53.131983609326468 ], [ -6.468552604879575, 53.132429310463479 ], [ -6.468105149844865, 53.133023801994263 ], [ -6.467656257214522, 53.13254329892311 ], [ -6.462545942425141, 53.13289118192067 ], [ -6.456353421565241, 53.131175257987238 ], [ -6.45497233884738, 53.131343239135333 ], [ -6.457791948642843, 53.136324045351422 ], [ -6.459166027453381, 53.136551472813572 ], [ -6.458171484560184, 53.136926685059088 ], [ -6.457024455872201, 53.136943693503575 ], [ -6.454498077360518, 53.138609729662839 ], [ -6.452763661356939, 53.139220442531702 ], [ -6.453386955845162, 53.139419499689069 ], [ -6.453461996065855, 53.140710134489169 ], [ -6.455122586646488, 53.141845145207967 ], [ -6.453464602746354, 53.142106118414659 ], [ -6.448605421073099, 53.141813736551228 ], [ -6.44502139682941, 53.14039362427166 ], [ -6.442879093347044, 53.138886824802057 ], [ -6.440257385119315, 53.138177970428394 ], [ -6.438722211982826, 53.138234506088658 ], [ -6.436392498909006, 53.139118833485576 ], [ -6.435289972066007, 53.138552114222399 ], [ -6.431380253686492, 53.138515254640247 ], [ -6.432898854563899, 53.137016304876461 ], [ -6.431019802657854, 53.134196411654351 ], [ -6.430032567262321, 53.130217793974118 ], [ -6.433241010504144, 53.124665437847142 ], [ -6.433938186022014, 53.122542487167365 ], [ -6.432574531230383, 53.120312934422607 ], [ -6.437625756770769, 53.118690506385015 ], [ -6.43322518279327, 53.115990409911113 ], [ -6.42966225896995, 53.114319740318315 ], [ -6.425018921982031, 53.110358051929779 ], [ -6.424000909428635, 53.110694334815321 ], [ -6.420107274702059, 53.110377044446672 ], [ -6.418704051965237, 53.110628414872124 ], [ -6.416811789743765, 53.10989993549655 ], [ -6.415616911180077, 53.109993411799287 ], [ -6.413197969289205, 53.109287065930332 ], [ -6.413883776793171, 53.10973639752752 ], [ -6.414020365422272, 53.110767288036641 ], [ -6.415810768630274, 53.112107909740359 ], [ -6.417515035444888, 53.112848787733157 ], [ -6.420956801416304, 53.116217042257681 ], [ -6.420723629071063, 53.117433554099982 ], [ -6.419607481426649, 53.11860702952962 ], [ -6.41761335861651, 53.119866128518147 ], [ -6.416482262811859, 53.121873694883504 ], [ -6.416623687099168, 53.122343985763351 ], [ -6.415681248969639, 53.123052731448801 ], [ -6.417356725950659, 53.124283676926915 ], [ -6.417516921871544, 53.12622529530212 ], [ -6.416639666068171, 53.127317813988995 ], [ -6.416799397617117, 53.128001771935359 ], [ -6.416268421742397, 53.128221189752267 ], [ -6.417241586475238, 53.130248180806419 ], [ -6.416591922361826, 53.130520218320598 ], [ -6.417798164579851, 53.131136655007261 ], [ -6.417649897707444, 53.131511966307471 ], [ -6.416217159851162, 53.132165614470409 ], [ -6.414773729223859, 53.134034072899418 ], [ -6.41568417964751, 53.135355941542663 ], [ -6.414911595215039, 53.1357934233151 ], [ -6.415030754706337, 53.137071900397117 ], [ -6.413866119208201, 53.137730634956725 ], [ -6.414698865666337, 53.138450239547232 ], [ -6.414058277997566, 53.140309721894376 ], [ -6.412062284527015, 53.140435735231264 ], [ -6.411571706271497, 53.139910092690187 ], [ -6.41057744802418, 53.139682413506172 ], [ -6.409968012111541, 53.138860597771874 ], [ -6.408778695810621, 53.138579327787454 ], [ -6.407332058425727, 53.137617265520056 ], [ -6.403406867264666, 53.13805035554396 ], [ -6.399716805197559, 53.137407566028827 ], [ -6.396068623115234, 53.136044779482553 ], [ -6.389962017553727, 53.134960498995717 ], [ -6.380143907871122, 53.132339198762736 ], [ -6.380644184236965, 53.132818068822438 ], [ -6.380361676179631, 53.133860846642868 ], [ -6.380982306914049, 53.134393024018799 ], [ -6.380373186270954, 53.135267499194676 ], [ -6.381222037007025, 53.135667002255126 ], [ -6.380746531573284, 53.135980951568541 ], [ -6.380785988519758, 53.136558156269615 ], [ -6.381797713933452, 53.137072901754607 ], [ -6.381483705233, 53.137438333335346 ], [ -6.382409121830236, 53.13981529038297 ], [ -6.382298387992789, 53.140524824917946 ], [ -6.381907055912316, 53.140586199811295 ], [ -6.382314634916724, 53.141484050431671 ], [ -6.38171136633433, 53.142461673281353 ], [ -6.38189655207748, 53.142976970089109 ], [ -6.381623938078576, 53.143395479197146 ], [ -6.380825196757139, 53.143559146759031 ], [ -6.381197861160846, 53.144069272246682 ], [ -6.380860375095863, 53.144858423653751 ], [ -6.381264391531774, 53.145069339698104 ], [ -6.380817649498469, 53.145385646227702 ], [ -6.381718824847818, 53.145591527146621 ], [ -6.381565275729018, 53.146060236580915 ], [ -6.382381193640299, 53.146981328116688 ], [ -6.382798699623899, 53.148437020379475 ], [ -6.383903618745999, 53.148667416315021 ], [ -6.383793703027796, 53.149069183005359 ], [ -6.384730669958832, 53.149754888097441 ], [ -6.386320366630257, 53.149839492569612 ], [ -6.387619003450453, 53.149339678119688 ], [ -6.390662287379873, 53.150374826288115 ], [ -6.392513876510909, 53.151289764228373 ], [ -6.393105703157056, 53.152140917748746 ], [ -6.394719231859965, 53.152653702774067 ], [ -6.394748173282928, 53.153205061998925 ], [ -6.39643554593178, 53.153530528483074 ], [ -6.397366410526399, 53.154162272377746 ], [ -6.398363235399055, 53.155908909685287 ], [ -6.399626813316961, 53.156653788793541 ], [ -6.399646693297813, 53.157588485010606 ], [ -6.400325646556858, 53.158263854928194 ], [ -6.399523705136052, 53.159035301190798 ], [ -6.400772240577933, 53.159961514717061 ], [ -6.400504430647661, 53.160981364435521 ], [ -6.398712434527319, 53.161123099260486 ], [ -6.399299335953403, 53.162502516455056 ], [ -6.399677586665542, 53.163086089799634 ], [ -6.401750557433601, 53.163193829396036 ], [ -6.400820899652176, 53.16380420416094 ], [ -6.400543422856765, 53.163412663562831 ], [ -6.400437320604427, 53.164091805011964 ], [ -6.398061830879446, 53.16450243737318 ], [ -6.395561129413541, 53.163934503624589 ], [ -6.394954083921691, 53.165350639930558 ], [ -6.390347779801044, 53.165232849624502 ], [ -6.38739346985562, 53.166021289563396 ], [ -6.382359808386414, 53.165672744453715 ], [ -6.374869473282974, 53.163673512748161 ], [ -6.373479022726841, 53.162422142194167 ], [ -6.371988687575671, 53.161663774767561 ], [ -6.369382686734359, 53.161729626013475 ], [ -6.368269424921721, 53.162266326015434 ], [ -6.367197760436083, 53.162100692205819 ], [ -6.364283158622608, 53.160021639677076 ], [ -6.363970548475617, 53.15937159523709 ], [ -6.364396096649216, 53.158526414025992 ], [ -6.363587430562216, 53.158303280384054 ], [ -6.36342970329863, 53.15794222223883 ], [ -6.360833524336255, 53.157829418298334 ], [ -6.359440032285193, 53.157163210209227 ], [ -6.356005195016502, 53.156380634318602 ], [ -6.35455321845301, 53.1577834986577 ], [ -6.357441597945294, 53.159175119942603 ], [ -6.360464941253611, 53.161345421970623 ], [ -6.357511403655416, 53.162852177149254 ], [ -6.355420680227413, 53.164628714939134 ], [ -6.355492516512172, 53.166256786838929 ], [ -6.355006352150398, 53.16649340196777 ], [ -6.355336869820311, 53.166709707407193 ], [ -6.354221357376385, 53.167870933421284 ], [ -6.354580801955736, 53.168125270777523 ], [ -6.354295280791051, 53.168552245889188 ], [ -6.353520162888696, 53.168865035007244 ], [ -6.353309452494367, 53.17033980304118 ], [ -6.354249029175365, 53.171322890740647 ], [ -6.35439741832079, 53.1721589799334 ], [ -6.355512725402041, 53.173082705287314 ], [ -6.356145293057053, 53.17609552245478 ], [ -6.357220352104529, 53.177990174789059 ], [ -6.356743467986946, 53.180767791271407 ], [ -6.357032957570267, 53.181852384066097 ], [ -6.35793684340782, 53.182811638321844 ], [ -6.358689391894818, 53.18499233437381 ], [ -6.360898080128094, 53.186408324329818 ], [ -6.354353740563998, 53.184810198717322 ], [ -6.349009192828624, 53.182233121915424 ], [ -6.347288406569628, 53.180957491068384 ], [ -6.33199135691996, 53.178209352826769 ], [ -6.312125802815941, 53.194528808657445 ], [ -6.307652789957944, 53.214470499433183 ], [ -6.308452984796149, 53.21870232595321 ], [ -6.309610983229913, 53.220994115049344 ], [ -6.310826869918952, 53.222222823406554 ], [ -6.307453097012406, 53.223139416280809 ], [ -6.304669464656722, 53.22455954070805 ], [ -6.302659903001463, 53.224612924261919 ], [ -6.298239920666085, 53.224325769940386 ], [ -6.292146142081556, 53.222817605990308 ], [ -6.291403316759355, 53.221742640059439 ], [ -6.285221943055262, 53.217137781248937 ], [ -6.275995245222805, 53.211118839135388 ], [ -6.27112186959007, 53.209769474696792 ], [ -6.268828028654625, 53.209557131558007 ], [ -6.259342961183833, 53.205115271839297 ], [ -6.239551412131306, 53.202174092960917 ], [ -6.230531584293477, 53.204291373747459 ], [ -6.228482955409356, 53.198635432265107 ], [ -6.23444691577783, 53.198148868098627 ], [ -6.234262968891767, 53.199892732177766 ], [ -6.244679824871825, 53.201473590165726 ], [ -6.25304835003247, 53.200343178796764 ], [ -6.252358487585962, 53.197517514160538 ], [ -6.252792257277077, 53.197258218983791 ], [ -6.257119210215714, 53.19644376648877 ], [ -6.260369633875758, 53.19660783252867 ], [ -6.261100135134482, 53.196075247874631 ], [ -6.262207380067551, 53.196355104288422 ], [ -6.266051729135333, 53.19837170921079 ], [ -6.269736386636054, 53.198394689712849 ], [ -6.269928090052072, 53.198639263898315 ], [ -6.271282047571558, 53.198729973310996 ], [ -6.271249276110172, 53.199520718203978 ], [ -6.271891984493653, 53.200179729411843 ], [ -6.273195899924258, 53.20003913552614 ], [ -6.275169487762061, 53.198956096063505 ], [ -6.27596261544493, 53.199830269261717 ], [ -6.276976437034236, 53.200170415009389 ], [ -6.278493452459236, 53.199555024970778 ], [ -6.279200750843115, 53.199970473957805 ], [ -6.278787339800344, 53.200786890531084 ], [ -6.281857858179484, 53.201751904756058 ], [ -6.284417051038142, 53.203425853034375 ], [ -6.28845669694734, 53.20320160597786 ], [ -6.2902906466356, 53.203516772540503 ], [ -6.291059057160154, 53.204210900867885 ], [ -6.292173856304469, 53.206450723500481 ], [ -6.29278310866844, 53.206209104627163 ], [ -6.292371330551909, 53.205625409603357 ], [ -6.292689447927851, 53.205071134334005 ], [ -6.294661969762834, 53.204055437978809 ], [ -6.29591791498767, 53.20224919385204 ], [ -6.297052501982614, 53.201542725499301 ], [ -6.29601729377581, 53.200911795158135 ], [ -6.294166179362582, 53.198369969569796 ], [ -6.295144587070789, 53.194162797301821 ], [ -6.292030168914355, 53.189451597748047 ], [ -6.291899390957981, 53.187719712258698 ], [ -6.293521493420723, 53.186737340994014 ], [ -6.293896375637934, 53.185703246051432 ], [ -6.297589419019568, 53.186301178729764 ], [ -6.300192044047853, 53.187212559555782 ], [ -6.301278148255761, 53.187282678432176 ], [ -6.302096016205046, 53.186604501849246 ], [ -6.304029783781031, 53.186933803122628 ], [ -6.306565194861039, 53.186838600817119 ], [ -6.30763574592908, 53.186484679537386 ], [ -6.307895444493904, 53.185743067889376 ], [ -6.306255460737388, 53.185480772259176 ], [ -6.30483191855966, 53.18457957552237 ], [ -6.301870250900432, 53.183800076661434 ], [ -6.300269084019178, 53.182429422079906 ], [ -6.298259207344542, 53.181843983653614 ], [ -6.295647118683165, 53.1826652411239 ], [ -6.294018150529006, 53.185521052978089 ], [ -6.292936613386553, 53.185925663986019 ], [ -6.290186883671143, 53.18530968304345 ], [ -6.2913036900797, 53.182796058620475 ], [ -6.290117948896191, 53.180992158927715 ], [ -6.289580535297856, 53.182174008354202 ], [ -6.288905745688516, 53.182367348388524 ], [ -6.287325637069188, 53.18426799170981 ], [ -6.285892586261284, 53.184963470651944 ], [ -6.285464385366088, 53.183744289287787 ], [ -6.283461567200645, 53.18249413334955 ], [ -6.279093558209061, 53.181977414176174 ], [ -6.277220806435895, 53.182165163342809 ], [ -6.27598398157036, 53.182698099120088 ], [ -6.274685709261738, 53.182117787032574 ], [ -6.269501473111852, 53.180989887447666 ], [ -6.268914641993113, 53.180785061773591 ], [ -6.269459615622833, 53.176643523823493 ], [ -6.269080539712508, 53.175796382313514 ], [ -6.266499390091417, 53.174686924370924 ], [ -6.2666285977755, 53.174137124794854 ], [ -6.264510310915408, 53.172634183621902 ], [ -6.26222214704269, 53.16932554854754 ], [ -6.260949123115738, 53.168539886396992 ], [ -6.259657752578604, 53.16839324106413 ], [ -6.256666993695012, 53.168827590402692 ], [ -6.247821592855243, 53.168189865588573 ], [ -6.244260374586965, 53.167565078403427 ], [ -6.243639955167703, 53.167251791535939 ], [ -6.243154735625156, 53.165791639291577 ], [ -6.240714316816423, 53.164219904673423 ], [ -6.239191525708547, 53.163829789335374 ], [ -6.236324829245693, 53.164329349315373 ], [ -6.235222563370402, 53.165272738961214 ], [ -6.234213581072432, 53.164910817026168 ], [ -6.235018216994185, 53.164160586106796 ], [ -6.235971771332963, 53.163937000267381 ], [ -6.235329828730422, 53.161270446711313 ], [ -6.237400554585102, 53.159666574137212 ], [ -6.237278348187193, 53.158327891171204 ], [ -6.23781216931621, 53.157272724879967 ], [ -6.233873044662583, 53.157217858380641 ], [ -6.231056741478497, 53.157660047322217 ], [ -6.228779345885949, 53.157664797939624 ], [ -6.219139463747783, 53.154660045935842 ], [ -6.216635709460641, 53.15450531701417 ], [ -6.214495202873174, 53.152870827268998 ], [ -6.214090105854257, 53.152456146153284 ], [ -6.215170736213724, 53.152161197051612 ], [ -6.216196011824744, 53.151353319407249 ], [ -6.217998722890912, 53.148940349895867 ], [ -6.219189736047292, 53.142026502050157 ], [ -6.215337682501239, 53.139545961733624 ], [ -6.213363887212926, 53.138717812480749 ], [ -6.215094473964719, 53.135343509710601 ], [ -6.212794688974441, 53.134442500043377 ], [ -6.206816302033547, 53.13410291613372 ], [ -6.206643408384734, 53.132940207203923 ], [ -6.20797478537921, 53.131950541398091 ], [ -6.208204822801072, 53.130496223532603 ], [ -6.208743230939751, 53.130461360694802 ], [ -6.209445819450622, 53.129734758663055 ], [ -6.209250952963685, 53.128313219192769 ], [ -6.210002811734775, 53.1282870402123 ], [ -6.209893457416772, 53.127582059533971 ], [ -6.210978571113629, 53.127063678742338 ], [ -6.211197881883653, 53.12579692711131 ], [ -6.212801761245482, 53.125027682941862 ], [ -6.214130807033046, 53.123184336764005 ], [ -6.216962874455637, 53.123415943043845 ], [ -6.218542942632718, 53.121265432178035 ], [ -6.218904010679196, 53.1206846060402 ], [ -6.218079659949539, 53.11564079322897 ], [ -6.225217638707528, 53.115746489520525 ], [ -6.225246660529627, 53.113059812349064 ], [ -6.232556396467493, 53.114042554685192 ], [ -6.234383597137835, 53.113805561896335 ], [ -6.235338210434834, 53.114269329783433 ], [ -6.24008198888662, 53.11386274118626 ], [ -6.243530248348969, 53.113244620356475 ], [ -6.245150890443199, 53.113435625504522 ], [ -6.246228795189483, 53.113155103019693 ], [ -6.246819643549737, 53.114382884669155 ], [ -6.248016757707495, 53.114029121990882 ], [ -6.24793917090711, 53.113010540217566 ], [ -6.251984925421902, 53.111799016837175 ], [ -6.25392341160186, 53.110377284570191 ], [ -6.254884537819377, 53.108794177301995 ], [ -6.25710403049924, 53.108333857486819 ], [ -6.258352245930668, 53.110773149541849 ], [ -6.260444021134195, 53.112726013951814 ], [ -6.264822375059738, 53.114718382806103 ], [ -6.264424795068626, 53.115515469142814 ], [ -6.268274908752807, 53.118061234842429 ], [ -6.273187467424274, 53.120245985958427 ], [ -6.273951816734819, 53.119239641102162 ], [ -6.271064004184548, 53.118268603259239 ], [ -6.271089478025108, 53.117622368312318 ], [ -6.274447830531047, 53.117252122299874 ], [ -6.275454698628337, 53.116843092078661 ], [ -6.27448075614971, 53.11587107442103 ], [ -6.274535756580427, 53.114719498712866 ], [ -6.273686456236941, 53.112770317077164 ], [ -6.271855382035333, 53.110876940777111 ], [ -6.270509643276426, 53.110417752863249 ], [ -6.271152092573747, 53.110294679267362 ], [ -6.271099165479708, 53.108392289284751 ], [ -6.272608688503562, 53.106173494917833 ], [ -6.27221620411336, 53.105196694792845 ], [ -6.270242157498671, 53.103828887425372 ], [ -6.27055852802306, 53.102875583301625 ], [ -6.269176034076098, 53.102013699378958 ], [ -6.26921907734974, 53.10103493961018 ], [ -6.268716213870063, 53.100358130868138 ], [ -6.267729503040258, 53.09947278106609 ], [ -6.263182177158662, 53.100423080392623 ], [ -6.262788787983994, 53.100169786601576 ], [ -6.262230733657646, 53.100748706918978 ], [ -6.262505233653902, 53.101925594307417 ], [ -6.258423107625505, 53.10588020311841 ], [ -6.258782055631431, 53.106131883505789 ], [ -6.258514692992683, 53.106708440920819 ], [ -6.256459870512206, 53.106988241001787 ], [ -6.255238989041374, 53.105999521347123 ], [ -6.254274221633628, 53.101754414506765 ], [ -6.251435432458087, 53.097567561020341 ], [ -6.250808774670654, 53.095270017882761 ], [ -6.25217444288125, 53.094772382726816 ], [ -6.25018585621437, 53.093996707207225 ], [ -6.25024637852548, 53.09357452939232 ], [ -6.252842500709658, 53.093345476848157 ], [ -6.253247327257625, 53.091460042102248 ], [ -6.254451239631268, 53.089342854378522 ], [ -6.253559335449287, 53.089009197563406 ], [ -6.254010155911479, 53.087817519047384 ], [ -6.255781974097721, 53.086958760881949 ], [ -6.255549337859097, 53.086413911519159 ], [ -6.25792239962927, 53.082204524382625 ], [ -6.262526273123522, 53.083683585275416 ], [ -6.263101258318764, 53.083153353114717 ], [ -6.265493631093682, 53.082974691828845 ], [ -6.264874496930603, 53.084997035411689 ], [ -6.262791124974019, 53.087899318260277 ], [ -6.263694464048995, 53.088031297589637 ], [ -6.265187263911413, 53.086926534491276 ], [ -6.266455151592221, 53.087225846028133 ], [ -6.267207801556808, 53.086058456585633 ], [ -6.266150634204642, 53.08597130069036 ], [ -6.267315685078029, 53.084302323458488 ], [ -6.271336810422879, 53.08131987928143 ], [ -6.271877678525493, 53.08124180472268 ], [ -6.273002994996902, 53.082000377783721 ], [ -6.274093686623198, 53.082168417151756 ], [ -6.272249950384026, 53.083672305372389 ], [ -6.270185633631445, 53.084753399992202 ], [ -6.268567725695526, 53.086748736682644 ], [ -6.267514935654752, 53.089349743070933 ], [ -6.26766534522983, 53.090134039310449 ], [ -6.266666532707761, 53.091667555399567 ], [ -6.267708048972974, 53.092519172473281 ], [ -6.267233985452011, 53.09325267080601 ], [ -6.2676505028228, 53.09384665014133 ], [ -6.264508729734441, 53.095949754215738 ], [ -6.264266625086978, 53.094975821448891 ], [ -6.263913140670299, 53.095586098150946 ], [ -6.262949316756094, 53.095990181242371 ], [ -6.263699038275344, 53.096222138011008 ], [ -6.262772493563832, 53.096488034946276 ], [ -6.262111689853107, 53.097545250331343 ], [ -6.261986537511436, 53.097953009332549 ], [ -6.262569282268396, 53.098485265255569 ], [ -6.263847394397242, 53.098781943299024 ], [ -6.267005450812552, 53.097428621993139 ], [ -6.268152512637276, 53.097898159793885 ], [ -6.271512023276798, 53.09733326847627 ], [ -6.271530478600662, 53.09787356752873 ], [ -6.272135880393241, 53.097785335369018 ], [ -6.272917087652629, 53.094893203091303 ], [ -6.27636067679322, 53.095076537386625 ], [ -6.276918736457849, 53.094817555731332 ], [ -6.276992584283859, 53.094102233829773 ], [ -6.275220094682518, 53.093698555211745 ], [ -6.274907714161092, 53.093099374105471 ], [ -6.273769581463116, 53.09303737046627 ], [ -6.273394458710395, 53.092199973676841 ], [ -6.275673822524476, 53.088886691366319 ], [ -6.275727643833958, 53.087354292564406 ], [ -6.27828609969011, 53.083698322703505 ], [ -6.276269033547428, 53.082971113743142 ], [ -6.277152901232888, 53.082036263186616 ], [ -6.280039410502474, 53.082632109315604 ], [ -6.281012927567118, 53.081821109188617 ], [ -6.284124904238054, 53.08354988345274 ], [ -6.286084360834623, 53.082573752343158 ], [ -6.286715017373393, 53.081867147318967 ], [ -6.28469289510028, 53.080011081021354 ], [ -6.283700139226959, 53.077862889941422 ], [ -6.291152227624027, 53.07903058776968 ], [ -6.294138718075689, 53.079138186651107 ], [ -6.295989490210572, 53.078553072305915 ], [ -6.297934462442091, 53.078923949418716 ], [ -6.29835170882331, 53.079246692446965 ], [ -6.298169228207864, 53.079734687291037 ], [ -6.298899711184114, 53.08001444931044 ], [ -6.29939585174311, 53.079354017725429 ], [ -6.300963395337443, 53.079848488404622 ], [ -6.30121381655384, 53.079316106628035 ], [ -6.301667945475324, 53.079259545822474 ], [ -6.303093404480162, 53.080426225907559 ], [ -6.303970463029474, 53.080241172841333 ], [ -6.304480335550484, 53.079466758798965 ], [ -6.305000968323615, 53.07949790991006 ] ], [ [ -6.300059973173249, 53.17483536906169 ], [ -6.298282075202808, 53.174986890187697 ], [ -6.297136460425999, 53.175801467830226 ], [ -6.298549320344002, 53.176418134698551 ], [ -6.299695236582717, 53.177462316700101 ], [ -6.30145802816388, 53.179764950590339 ], [ -6.30268443507751, 53.179982525107576 ], [ -6.30354098800631, 53.179137238802298 ], [ -6.303395955943212, 53.177305329929723 ], [ -6.301483372332853, 53.175256558178937 ], [ -6.300059973173249, 53.17483536906169 ] ], [ [ -6.401390555779289, 53.10576603619306 ], [ -6.400778626793193, 53.1059967917287 ], [ -6.401376252927689, 53.106742683347314 ], [ -6.402765337130354, 53.10727496111631 ], [ -6.403156474660236, 53.106819522489957 ], [ -6.402761550136641, 53.106130841051858 ], [ -6.401390555779289, 53.10576603619306 ] ], [ [ -6.369880830196719, 53.061220738280092 ], [ -6.375813843829752, 53.061363833358087 ], [ -6.376778218284621, 53.060809030700355 ], [ -6.376876206706021, 53.060037959339432 ], [ -6.375640679083778, 53.059127785751926 ], [ -6.374331440354851, 53.058851818224269 ], [ -6.374870611850466, 53.058410007913011 ], [ -6.374451485916147, 53.057731281945969 ], [ -6.373003708238164, 53.057768490770435 ], [ -6.370927120440559, 53.059683234834125 ], [ -6.369880830196719, 53.061220738280092 ] ], [ [ -6.436810099724191, 53.029916126962142 ], [ -6.435835835439568, 53.029549615372524 ], [ -6.435696376783259, 53.030249420082896 ], [ -6.436810099724191, 53.029916126962142 ] ], [ [ -6.462798412512114, 53.025504144819394 ], [ -6.464555237790441, 53.024561657920401 ], [ -6.46425009221543, 53.024157402767194 ], [ -6.462886870508151, 53.024156354634144 ], [ -6.4618720929071, 53.024559269196914 ], [ -6.462078308218747, 53.025282389507623 ], [ -6.462798412512114, 53.025504144819394 ] ], [ [ -6.466738019994411, 53.024672951968235 ], [ -6.465723448432096, 53.024375388588062 ], [ -6.465897203524918, 53.024650170844076 ], [ -6.466738019994411, 53.024672951968235 ] ], [ [ -6.427594171326778, 52.978559677089152 ], [ -6.424863642736288, 52.977380270612947 ], [ -6.424527085498458, 52.97788382384546 ], [ -6.425107785905913, 52.978713501045803 ], [ -6.427249329755757, 52.979343112776569 ], [ -6.428058694042853, 52.979297656798657 ], [ -6.427594171326778, 52.978559677089152 ] ], [ [ -6.427142722244978, 52.959441600970557 ], [ -6.428445090251911, 52.959038577108366 ], [ -6.427520964587443, 52.958566212917106 ], [ -6.426690338783085, 52.958580350902452 ], [ -6.425274358862858, 52.957784401554214 ], [ -6.423602466294092, 52.957569020838029 ], [ -6.422990875067767, 52.958273504292954 ], [ -6.426161860559445, 52.959225433274462 ], [ -6.426512724856081, 52.959001907764552 ], [ -6.427142722244978, 52.959441600970557 ] ] ] ] } },
{ "type": "Feature", "properties": { "SITECODE": "004063", "SITE_NAME": "Poulaphouca Reservoir SPA", "VERSION": 2.0, "COUNTY": "wi", "HA": 1979.089, "Source_CRS": "Irish Grid", "SourcScale": "1:10560", "URL": "https://www.npws.ie/protected-sites/spa/004063" }, "geometry": { "type": "MultiPolygon", "coordinates": [ [ [ [ -6.493157861563759, 53.182786977390855 ], [ -6.493739123551401, 53.181874519258699 ], [ -6.491030976180092, 53.182185074311839 ], [ -6.49040829304491, 53.18165346130359 ], [ -6.489349653776953, 53.181768790103696 ], [ -6.485303985659617, 53.180874950653951 ], [ -6.486713638905037, 53.179950736327399 ], [ -6.486383908943441, 53.179438408497681 ], [ -6.484690125170625, 53.179684765159543 ], [ -6.483844530952021, 53.180241249347119 ], [ -6.483154753164679, 53.179905454501188 ], [ -6.481913072027094, 53.180161461572553 ], [ -6.482818293239778, 53.179412829760508 ], [ -6.482791912804179, 53.178663978417603 ], [ -6.48216805313532, 53.178884612791741 ], [ -6.483065557243633, 53.176486507445361 ], [ -6.483821421635782, 53.175927903324023 ], [ -6.484022599098789, 53.176107799567554 ], [ -6.485875129416002, 53.175782737678844 ], [ -6.485654899925802, 53.175135183305542 ], [ -6.48683137524209, 53.173699584713816 ], [ -6.487787912563438, 53.173956889204419 ], [ -6.488287387687094, 53.17446603300079 ], [ -6.488718865758534, 53.174038210238677 ], [ -6.488496589730853, 53.173620624512232 ], [ -6.488908372608453, 53.173486846478994 ], [ -6.488665174327966, 53.173159278013664 ], [ -6.490367920388172, 53.173208678967427 ], [ -6.491230331454683, 53.17195355082599 ], [ -6.492584067330267, 53.171798837727522 ], [ -6.494063442236864, 53.172339735468512 ], [ -6.49583555776235, 53.172182271747893 ], [ -6.496414414034645, 53.171880545308554 ], [ -6.495881060595202, 53.171830142336866 ], [ -6.497369351745713, 53.171060964252604 ], [ -6.49811866056891, 53.171056378011826 ], [ -6.499563417960137, 53.171813700139779 ], [ -6.499875234225019, 53.171610106357498 ], [ -6.499827690227857, 53.171539584029333 ], [ -6.499380524881255, 53.171670987189934 ], [ -6.498931638387774, 53.171061996420697 ], [ -6.504077396030016, 53.171495749061584 ], [ -6.507766455624406, 53.17022164576818 ], [ -6.508334171149456, 53.169402740499493 ], [ -6.50883434816355, 53.169789371013387 ], [ -6.513928917014637, 53.17022865549027 ], [ -6.519309330847145, 53.170037898441194 ], [ -6.519486634091942, 53.169611861324839 ], [ -6.522540864316241, 53.168285178958747 ], [ -6.525254583026687, 53.165872362704576 ], [ -6.526462345696847, 53.164486470364849 ], [ -6.526749897704971, 53.163458314568928 ], [ -6.525416056553254, 53.160278278625221 ], [ -6.522857823787971, 53.158787448456692 ], [ -6.520975153176309, 53.158592215037338 ], [ -6.520149900043458, 53.15814908281947 ], [ -6.521046519070274, 53.157671746137289 ], [ -6.521226978964929, 53.156241407563265 ], [ -6.522804975151707, 53.154476976508853 ], [ -6.523842189836226, 53.152336267478809 ], [ -6.523949452134945, 53.151170667804976 ], [ -6.522717218646944, 53.150339753755873 ], [ -6.523859574299224, 53.149665082940345 ], [ -6.519288285877818, 53.146711411777424 ], [ -6.512136551170361, 53.143546876552868 ], [ -6.508683532757267, 53.141624861623384 ], [ -6.503813112692826, 53.140344575574375 ], [ -6.499654318237502, 53.138726250317696 ], [ -6.498705043312318, 53.138080337018685 ], [ -6.49404764009758, 53.136523901689074 ], [ -6.490270773266743, 53.135832702561004 ], [ -6.486243400715249, 53.134646624918823 ], [ -6.484826666686224, 53.133877691825873 ], [ -6.483110610735697, 53.133866083382095 ], [ -6.481388154745588, 53.133175491386503 ], [ -6.47986805718836, 53.130960789967745 ], [ -6.479457746436478, 53.128142171679357 ], [ -6.478048146585625, 53.126110966570963 ], [ -6.478882096477403, 53.124402036749352 ], [ -6.478783635652479, 53.122986857447621 ], [ -6.479371327665565, 53.121414623266745 ], [ -6.481142183627358, 53.120784896724778 ], [ -6.481877890023666, 53.119340486153199 ], [ -6.484322926473416, 53.118503783093907 ], [ -6.48765410510843, 53.116355078547997 ], [ -6.490064679983287, 53.115321668006267 ], [ -6.491296297552115, 53.114058581730227 ], [ -6.49335839095956, 53.112974493155463 ], [ -6.49393695773145, 53.111403617827015 ], [ -6.497399582967165, 53.111116307567436 ], [ -6.499719982986255, 53.111544769046283 ], [ -6.500635553488308, 53.111453388929974 ], [ -6.502912599303005, 53.108201961040002 ], [ -6.503530657600671, 53.104447331223334 ], [ -6.504751455476482, 53.102830000121102 ], [ -6.506261768595842, 53.102280173611568 ], [ -6.508148445496797, 53.102596877367155 ], [ -6.511113401330829, 53.101402767649773 ], [ -6.512518711781301, 53.100646971363908 ], [ -6.513178599085347, 53.098897999159256 ], [ -6.514819522152826, 53.098314593472693 ], [ -6.517829908389958, 53.098146013107943 ], [ -6.51850373838726, 53.097707764456295 ], [ -6.521100252600718, 53.097375705527313 ], [ -6.521476266531887, 53.097131433080349 ], [ -6.520853537709873, 53.096924592458414 ], [ -6.520832050110405, 53.096082432502769 ], [ -6.52208164468395, 53.097490679779959 ], [ -6.520736364174337, 53.10803271419136 ], [ -6.521953908613923, 53.109024667999876 ], [ -6.523725156520161, 53.109548618446439 ], [ -6.524935137771448, 53.110342189975327 ], [ -6.527319122111834, 53.114268900262296 ], [ -6.529850442041827, 53.115710322970706 ], [ -6.532319282652931, 53.115880784345208 ], [ -6.533017734114297, 53.115148320989256 ], [ -6.532365718295031, 53.114490470995683 ], [ -6.532371814121233, 53.113749891599021 ], [ -6.529369021539066, 53.11186125132356 ], [ -6.529576556297223, 53.111017714376565 ], [ -6.528700454242717, 53.10828829186346 ], [ -6.528695377315644, 53.106373335573842 ], [ -6.527179070575488, 53.104413283924757 ], [ -6.526485263499088, 53.102323835363862 ], [ -6.526596140241476, 53.098548349581101 ], [ -6.526986399988009, 53.098159615445937 ], [ -6.529773388243004, 53.097385050721947 ], [ -6.529920627117444, 53.096966485860378 ], [ -6.531739483219188, 53.097423370548377 ], [ -6.532918726254481, 53.098100085340562 ], [ -6.53240471941552, 53.098671810131059 ], [ -6.534160423515019, 53.099369661514828 ], [ -6.534974859401132, 53.098771020637223 ], [ -6.536190004330922, 53.098489292799243 ], [ -6.53543304919297, 53.099291821194214 ], [ -6.536309983227641, 53.099957198680642 ], [ -6.538512101910442, 53.100000835859937 ], [ -6.537492173906971, 53.098942398474961 ], [ -6.538591014028681, 53.099586195367053 ], [ -6.54164338842731, 53.099210424964419 ], [ -6.541732693736335, 53.098198049377416 ], [ -6.543463748274079, 53.097723892006151 ], [ -6.543903695788857, 53.096384302507772 ], [ -6.54371728301527, 53.095384136009258 ], [ -6.543006797734119, 53.095135057210534 ], [ -6.542985829684618, 53.09415432730988 ], [ -6.541383517330386, 53.092178798948765 ], [ -6.542051248424526, 53.092642048046258 ], [ -6.543467014262794, 53.092919005188563 ], [ -6.543316585831904, 53.093187730612875 ], [ -6.544199326441874, 53.093888364085267 ], [ -6.543953710399167, 53.094447835555478 ], [ -6.545206555146419, 53.09591891891295 ], [ -6.547469674150471, 53.094229372681866 ], [ -6.547674011377785, 53.092664344079409 ], [ -6.548121367718593, 53.092276659886615 ], [ -6.546959974398831, 53.09196762277751 ], [ -6.546615119837255, 53.091556225685473 ], [ -6.546750605796513, 53.091217950589744 ], [ -6.547956684267435, 53.090850484621768 ], [ -6.548020523719795, 53.089965987053489 ], [ -6.546054444745759, 53.089936920107043 ], [ -6.54574202882325, 53.089186828892309 ], [ -6.546112681568594, 53.088486506695737 ], [ -6.546697359557982, 53.08850755136217 ], [ -6.54651032244642, 53.087082082319142 ], [ -6.5472372108916, 53.087104019164173 ], [ -6.548238076516805, 53.089004594593412 ], [ -6.550430265746984, 53.089452129961622 ], [ -6.551455281132683, 53.088570914011356 ], [ -6.5524573232716, 53.090832036449108 ], [ -6.552380470304894, 53.092495785937295 ], [ -6.553974606730016, 53.092922356767374 ], [ -6.552444167611643, 53.093432946390436 ], [ -6.551498235823441, 53.09438730418421 ], [ -6.552012410245768, 53.096787528772516 ], [ -6.551199141860134, 53.097623449423118 ], [ -6.549070391648473, 53.098424936599123 ], [ -6.54905248851284, 53.099220132276109 ], [ -6.549626985187788, 53.099700594785325 ], [ -6.54839618130046, 53.099714649547451 ], [ -6.543944990597509, 53.101625419263428 ], [ -6.541771714842559, 53.103526053002973 ], [ -6.541450220549872, 53.104504972767224 ], [ -6.541967574283181, 53.10551537350976 ], [ -6.544276903749994, 53.107767157809825 ], [ -6.542775452513356, 53.108132796866656 ], [ -6.541849620322404, 53.108725351502962 ], [ -6.544018965521472, 53.109075557456705 ], [ -6.544979374637208, 53.108895646835002 ], [ -6.545364620402958, 53.109137085824067 ], [ -6.544845339465985, 53.109976416493708 ], [ -6.543557697297042, 53.111055707654828 ], [ -6.54239527938955, 53.11109412806681 ], [ -6.542244296146875, 53.111611649750905 ], [ -6.54117022028616, 53.111755743619618 ], [ -6.54160405111909, 53.11283687081584 ], [ -6.540806982377513, 53.113303364181952 ], [ -6.540012323674359, 53.113202492270723 ], [ -6.540406093884905, 53.113605942476283 ], [ -6.540107954918033, 53.11398882904971 ], [ -6.536372086760276, 53.115726827231519 ], [ -6.536077250059333, 53.117315712834049 ], [ -6.538542506272856, 53.11755395839441 ], [ -6.538619806694318, 53.117779420888851 ], [ -6.536609086402421, 53.118244034909452 ], [ -6.536266133125415, 53.1185975775348 ], [ -6.536513312609806, 53.119057084916328 ], [ -6.534865551084624, 53.120924600075213 ], [ -6.533761282915892, 53.121714837273643 ], [ -6.531938297408113, 53.122142793181183 ], [ -6.530879159616692, 53.122757067660061 ], [ -6.530316990863196, 53.124511549583211 ], [ -6.528992493579527, 53.124719136727386 ], [ -6.528330822225836, 53.125434199776628 ], [ -6.526754503439961, 53.125618990992464 ], [ -6.524595448448891, 53.123762722716108 ], [ -6.523890792504864, 53.123605573968312 ], [ -6.521299234985384, 53.125705363579833 ], [ -6.520408064388516, 53.127701286813895 ], [ -6.520810118068013, 53.128283362762041 ], [ -6.520660284167323, 53.127806779492033 ], [ -6.521137650977458, 53.127895412642701 ], [ -6.521908280616407, 53.129546078451547 ], [ -6.521409136260968, 53.13101542977207 ], [ -6.518868843816234, 53.134729799190147 ], [ -6.518461342396238, 53.135973799697595 ], [ -6.518707052179391, 53.137911542954356 ], [ -6.52330321328489, 53.141010594847607 ], [ -6.526762109562121, 53.145493015969464 ], [ -6.528384965858458, 53.14855741254528 ], [ -6.534335962567183, 53.150443495687099 ], [ -6.536196825389277, 53.150447156769367 ], [ -6.537164182527522, 53.150159838852232 ], [ -6.53764095648781, 53.148625003929254 ], [ -6.537608867112219, 53.145968657892134 ], [ -6.536868038064943, 53.145077652072317 ], [ -6.539063409858476, 53.141536154309087 ], [ -6.540591076502986, 53.1399785353955 ], [ -6.542206378707939, 53.13908399429009 ], [ -6.544520975277505, 53.136634262961429 ], [ -6.545034650344855, 53.133207852331829 ], [ -6.544577901754035, 53.131981420365243 ], [ -6.545067825223604, 53.130236804598638 ], [ -6.544711453764905, 53.129591485698739 ], [ -6.545749041826742, 53.12892318943107 ], [ -6.546960529297038, 53.128869888548635 ], [ -6.547461752938765, 53.12916665024904 ], [ -6.547493732726764, 53.128910656841349 ], [ -6.548486206803035, 53.129329526269814 ], [ -6.549637897501781, 53.128861686583178 ], [ -6.550236088063013, 53.128040146789793 ], [ -6.553601810761946, 53.128135997173416 ], [ -6.551343168380352, 53.129299045788983 ], [ -6.551165286846787, 53.130353448854912 ], [ -6.552038246591051, 53.130676761107829 ], [ -6.55384119271396, 53.130558274064484 ], [ -6.556893447260545, 53.131013736543579 ], [ -6.557454416617891, 53.13082607229682 ], [ -6.557198430714825, 53.128530953453264 ], [ -6.562263847975328, 53.130172399794262 ], [ -6.563560967750953, 53.12994585838905 ], [ -6.565211558764377, 53.128793083457261 ], [ -6.565388458696312, 53.128037856670517 ], [ -6.565126859013237, 53.127678209349938 ], [ -6.563209137409993, 53.127085579384008 ], [ -6.562303644109239, 53.126002490981982 ], [ -6.562818211193265, 53.124838547992795 ], [ -6.564829921641658, 53.123448357088876 ], [ -6.565563310191735, 53.12248094301858 ], [ -6.565545769351653, 53.12209657600512 ], [ -6.564390544048531, 53.121616913309985 ], [ -6.564340313525158, 53.12056114308681 ], [ -6.565234853137765, 53.120387857216691 ], [ -6.565894930053951, 53.120638999122988 ], [ -6.566878221245876, 53.120197186913224 ], [ -6.568408081980065, 53.120401640505321 ], [ -6.567753152118866, 53.12139907966472 ], [ -6.568294311392084, 53.122419896195332 ], [ -6.568140273119289, 53.12316374866333 ], [ -6.572613393982889, 53.122217780132701 ], [ -6.572887564791456, 53.121565083798124 ], [ -6.574791322156941, 53.120446242596472 ], [ -6.575249442773574, 53.11952293161923 ], [ -6.577078626283354, 53.11904608910389 ], [ -6.578953183000954, 53.118791463868618 ], [ -6.579303743458018, 53.119951344083056 ], [ -6.580812617896391, 53.121077444263562 ], [ -6.580692051600471, 53.121548898937874 ], [ -6.582174699963437, 53.120156459040686 ], [ -6.582926941189271, 53.119907630292687 ], [ -6.58320145312501, 53.120104942316289 ], [ -6.58251459827481, 53.120210774280515 ], [ -6.581921876305282, 53.120789211846514 ], [ -6.58026085601406, 53.123003572426754 ], [ -6.580625254746334, 53.123759800972536 ], [ -6.579955612105968, 53.124176966036572 ], [ -6.57912530705216, 53.124185590312891 ], [ -6.576631251846748, 53.123388460465449 ], [ -6.572793652354925, 53.12294809519021 ], [ -6.57184703095324, 53.123072373850391 ], [ -6.571910102483057, 53.123633917920394 ], [ -6.574722904133151, 53.126265458502154 ], [ -6.575533548438509, 53.127769660862008 ], [ -6.5737587338481, 53.130004191366098 ], [ -6.573136732429828, 53.130218579934322 ], [ -6.571352227727442, 53.130261901862355 ], [ -6.568598547949995, 53.129248911801696 ], [ -6.566430337602752, 53.130356746835346 ], [ -6.565381698574434, 53.131995866023907 ], [ -6.56747578316732, 53.132782237792817 ], [ -6.565718588422341, 53.133291816161879 ], [ -6.565175087877397, 53.134510461594495 ], [ -6.564242124717016, 53.134972945845803 ], [ -6.56441763376976, 53.135394881671786 ], [ -6.565548162871981, 53.135841948667434 ], [ -6.565652180289844, 53.136083579591144 ], [ -6.56247128793928, 53.13571931959703 ], [ -6.560599330944042, 53.136359841984785 ], [ -6.558430699351125, 53.135873761532778 ], [ -6.556296340591076, 53.135787375875225 ], [ -6.554293004152789, 53.137236217036609 ], [ -6.554409590005659, 53.137699715117833 ], [ -6.553617852123741, 53.138595444439446 ], [ -6.555113096236499, 53.138819301521572 ], [ -6.555571814923859, 53.137966417886339 ], [ -6.557075532188921, 53.138146124852362 ], [ -6.556379539941665, 53.139502306907453 ], [ -6.556905377763456, 53.140045461367265 ], [ -6.557967772445469, 53.140297309746323 ], [ -6.55908728933341, 53.14138203644054 ], [ -6.558502462996358, 53.141511150516195 ], [ -6.557858505138792, 53.140896227956269 ], [ -6.556793672329479, 53.140800200789137 ], [ -6.555079306481955, 53.14189831018431 ], [ -6.554807857113028, 53.142583011216409 ], [ -6.554561006212834, 53.141937229091212 ], [ -6.555713050547815, 53.140743427332808 ], [ -6.55551397633371, 53.140274156605521 ], [ -6.552436959004351, 53.139952731189823 ], [ -6.550800546410589, 53.14031458730706 ], [ -6.549606103440617, 53.140989019776569 ], [ -6.549529792855642, 53.142629595208085 ], [ -6.548594492922478, 53.144286517474292 ], [ -6.549036621925775, 53.145801147745289 ], [ -6.548229141573974, 53.14726628441246 ], [ -6.548576802579592, 53.147137136645945 ], [ -6.548652314262527, 53.147654054777242 ], [ -6.547898937862501, 53.147722371754583 ], [ -6.547830663661959, 53.148056832402368 ], [ -6.546809653413977, 53.147571479680373 ], [ -6.54702925935475, 53.147002140225048 ], [ -6.546473215855406, 53.146745987918138 ], [ -6.545638104665017, 53.147118539154548 ], [ -6.546364948491106, 53.147406827601984 ], [ -6.546363706133701, 53.147858363350842 ], [ -6.547418710389012, 53.148180840833668 ], [ -6.545098216991931, 53.14827718450973 ], [ -6.543688731838328, 53.146380874119721 ], [ -6.541932140978322, 53.146227388540865 ], [ -6.541649618461798, 53.146460092191703 ], [ -6.540168012556864, 53.14907724389569 ], [ -6.542439882157215, 53.150638332704347 ], [ -6.542806521467277, 53.150267371690354 ], [ -6.545298304594696, 53.149929838919903 ], [ -6.545856308246218, 53.150460656917708 ], [ -6.549079780224252, 53.150740226899039 ], [ -6.548233079018073, 53.152298956446884 ], [ -6.546543471492844, 53.151773014009699 ], [ -6.545341666844995, 53.152170148923098 ], [ -6.545077168352148, 53.152767017874744 ], [ -6.54665558899427, 53.154068078189077 ], [ -6.549813419535001, 53.155097301232765 ], [ -6.549774757993581, 53.155856011821413 ], [ -6.552255871300569, 53.156731743086553 ], [ -6.55202865910202, 53.15723613129687 ], [ -6.544982127320566, 53.155852994007716 ], [ -6.54544949761087, 53.155349868960663 ], [ -6.543548297396508, 53.155399917912952 ], [ -6.543444440247512, 53.15508694275379 ], [ -6.541850373459764, 53.15532409377645 ], [ -6.541098682968082, 53.154994052930618 ], [ -6.537982743378265, 53.155116313152398 ], [ -6.537120659008428, 53.156467254291272 ], [ -6.534629004910713, 53.156170819918422 ], [ -6.532377843047303, 53.156439769869493 ], [ -6.532885562945739, 53.157264604592108 ], [ -6.534250529731477, 53.157680596965598 ], [ -6.533261111652171, 53.15800651230203 ], [ -6.534287968330545, 53.159447243598848 ], [ -6.532298644809706, 53.160430861388434 ], [ -6.531517989245631, 53.161359016914467 ], [ -6.532463407195586, 53.162352543505854 ], [ -6.531855297178856, 53.163905535109301 ], [ -6.527730945433182, 53.166602660574462 ], [ -6.529648778558826, 53.167256508669318 ], [ -6.530834354040597, 53.168103197270405 ], [ -6.530677170775632, 53.168860160323341 ], [ -6.529136038108338, 53.170278481773295 ], [ -6.526286852429706, 53.170847143065465 ], [ -6.523876296974231, 53.170902370208943 ], [ -6.521482304287758, 53.171562909401146 ], [ -6.519991691263508, 53.171067847501945 ], [ -6.520140949666907, 53.171551440985056 ], [ -6.519574128418235, 53.172051546568085 ], [ -6.517440245488034, 53.173080158388686 ], [ -6.516558428038514, 53.172860669623155 ], [ -6.514580054779694, 53.173808468513528 ], [ -6.513735092074008, 53.174347900963959 ], [ -6.513428476240918, 53.175145659854891 ], [ -6.51030556621286, 53.174682599332435 ], [ -6.509320774599219, 53.174171126313837 ], [ -6.508683496161101, 53.174488049258471 ], [ -6.507125471530443, 53.174306916064545 ], [ -6.506356759691831, 53.174680027130158 ], [ -6.50491781014647, 53.174233303614635 ], [ -6.502962501947705, 53.174093601757725 ], [ -6.502823205969757, 53.174402713309682 ], [ -6.503709449539232, 53.175393477365603 ], [ -6.503302961614216, 53.176302141611245 ], [ -6.503557350267753, 53.177453032178768 ], [ -6.502336386233456, 53.178313965597781 ], [ -6.502494793793931, 53.178677507625849 ], [ -6.50057653490085, 53.17919857175044 ], [ -6.498922903072521, 53.178953786532297 ], [ -6.49793893029841, 53.180305579715167 ], [ -6.498930236573456, 53.181393462720855 ], [ -6.498850869559432, 53.181979366446107 ], [ -6.497943357360359, 53.181302248899122 ], [ -6.497174747461607, 53.181532789147163 ], [ -6.496331939974548, 53.182681215037988 ], [ -6.495596534575538, 53.182122651756224 ], [ -6.494828276828195, 53.182302354022539 ], [ -6.494954252435996, 53.182909804873049 ], [ -6.493157861563759, 53.182786977390855 ] ], [ [ -6.538289144875765, 53.154485715140908 ], [ -6.540255593251665, 53.154494257882071 ], [ -6.540569240251624, 53.154420036699051 ], [ -6.540005586383893, 53.153904710157022 ], [ -6.537028841755032, 53.154002254578842 ], [ -6.538289144875765, 53.154485715140908 ] ] ], [ [ [ -6.552132260361901, 53.157600343264264 ], [ -6.552452464760503, 53.156817676589988 ], [ -6.553603695378835, 53.157634656965151 ], [ -6.553109637483554, 53.158349925442309 ], [ -6.552462173672867, 53.158333771008962 ], [ -6.552132260361901, 53.157600343264264 ] ] ] ] } },
{ "type": "Feature", "properties": { "SITECODE": "004127", "SITE_NAME": "Wicklow Head SPA", "VERSION": 2.0, "COUNTY": "wi", "HA": 195.0493, "Source_CRS": "Irish Grid", "SourcScale": "1:10560", "URL": "https://www.npws.ie/protected-sites/spa/004127" }, "geometry": { "type": "MultiPolygon", "coordinates": [ [ [ [ -6.00782102724731, 52.971834177803309 ], [ -6.007818224820216, 52.972481477008699 ], [ -6.009803396707655, 52.972429932039574 ], [ -6.010411843750732, 52.971965777121241 ], [ -6.01138440841721, 52.972324971037573 ], [ -6.011905512408316, 52.972182036007446 ], [ -6.014019586555529, 52.972971038061239 ], [ -6.01591367691393, 52.972450544689096 ], [ -6.015887709380761, 52.972661867040109 ], [ -6.016694638968315, 52.972575780219067 ], [ -6.017064384608314, 52.972872765984562 ], [ -6.017962808326716, 52.972495419277543 ], [ -6.020105959451158, 52.972651353665 ], [ -6.021156986981167, 52.973586098626349 ], [ -6.021018414679508, 52.974744797341458 ], [ -6.021837632764859, 52.975174368996292 ], [ -6.015551612277329, 52.97790311597948 ], [ -6.015153443137021, 52.977565771712136 ], [ -6.004959230914049, 52.976957200938621 ], [ -6.001866314127919, 52.975571075001014 ], [ -5.998032675847653, 52.971956807113813 ], [ -5.994016657609441, 52.970415052422943 ], [ -5.992166271232006, 52.969066351717089 ], [ -5.99087325095172, 52.967106801166906 ], [ -5.990495981270839, 52.965563494895662 ], [ -5.992644166906271, 52.959450142373257 ], [ -5.994933584791555, 52.957013436397247 ], [ -5.996958168100907, 52.956044412716018 ], [ -5.998733876382626, 52.955638750836137 ], [ -6.00005238272403, 52.954699903933331 ], [ -6.005547322109877, 52.95790054310347 ], [ -6.004599784088723, 52.958782913207699 ], [ -6.004594863426977, 52.959303657205083 ], [ -6.002751392310992, 52.960006805747277 ], [ -6.002443075215496, 52.960419379029787 ], [ -6.001596738651947, 52.960506950461337 ], [ -6.000522736885093, 52.960035314361456 ], [ -6.000494829567731, 52.960962194240835 ], [ -5.999623583429021, 52.961196074554287 ], [ -5.999881995022709, 52.96170369947987 ], [ -5.999183868776382, 52.962216983554526 ], [ -5.99993706038608, 52.962878137000821 ], [ -5.999420570330267, 52.964201488480974 ], [ -6.002649716754536, 52.964228580813909 ], [ -6.002713857089783, 52.966055009533846 ], [ -6.000147459575532, 52.966228648224785 ], [ -6.002628283247742, 52.968333749318319 ], [ -6.003852063807871, 52.968618873102372 ], [ -6.003881999961497, 52.969039097283009 ], [ -6.00782102724731, 52.971834177803309 ] ], [ [ -5.99816310155692, 52.965554059036442 ], [ -5.99843612330471, 52.96593695688545 ], [ -5.998607094624274, 52.965921301263123 ], [ -5.998575755038621, 52.96552253526086 ], [ -5.99816310155692, 52.965554059036442 ] ] ] ] } },
{ "type": "Feature", "properties": { "SITECODE": "004186", "SITE_NAME": "The Murrough cSPA", "VERSION": 3.04, "COUNTY": "wi", "HA": 9771.6747, "Source_CRS": "ITM", "SourcScale": "1:5000", "URL": "https://www.npws.ie/protected-sites/spa/004186" }, "geometry": { "type": "MultiPolygon", "coordinates": [ [ [ [ -5.955555556165244, 53.133055556738952 ], [ -5.962499999322077, 52.98750000082881 ], [ -6.045428649549871, 52.989029776954325 ], [ -6.046707194865386, 52.991272253774092 ], [ -6.047387436947884, 52.991141812962134 ], [ -6.047797902254111, 52.991932192083958 ], [ -6.049945576960345, 52.998798257432476 ], [ -6.05415620432492, 52.998274223542381 ], [ -6.051748687874824, 52.996343375450579 ], [ -6.051591784543454, 52.995541143314156 ], [ -6.050727009330311, 52.994651097791639 ], [ -6.051471448273735, 52.994304098352089 ], [ -6.052627760772977, 52.995858196746269 ], [ -6.052994519395098, 52.994364831432378 ], [ -6.051910173948194, 52.993806140776663 ], [ -6.050696655304785, 52.99017151447012 ], [ -6.049061075386556, 52.988822278949804 ], [ -6.048238361432592, 52.988339978526959 ], [ -6.047873993419116, 52.988431676263126 ], [ -6.047228273495707, 52.986858145940218 ], [ -6.044812139210276, 52.984653563007448 ], [ -6.044227242241494, 52.983664849373795 ], [ -6.042190883184288, 52.982682965064114 ], [ -6.041123812604451, 52.98152183018918 ], [ -6.041782593708161, 52.981248348726623 ], [ -6.043043402329801, 52.982480929654066 ], [ -6.045236243509537, 52.983439503863188 ], [ -6.045495413330664, 52.984252453631186 ], [ -6.048969958973695, 52.987826449056975 ], [ -6.049765179955149, 52.988075440391995 ], [ -6.051026030221423, 52.987916451602665 ], [ -6.052110833005444, 52.987230897384471 ], [ -6.050806040947774, 52.988260083517872 ], [ -6.051470147715491, 52.989528484997308 ], [ -6.055795841875979, 52.991516460110724 ], [ -6.059361802560781, 52.992702874221052 ], [ -6.058471249444895, 52.993231223805175 ], [ -6.061875620868169, 52.997610042760549 ], [ -6.064371523572348, 52.999847832093735 ], [ -6.06293295210637, 53.001454349795281 ], [ -6.062459963262349, 53.00262823659012 ], [ -6.061375342950808, 53.003131790969626 ], [ -6.061831903531988, 53.003588578903475 ], [ -6.061251131666011, 53.003918708806268 ], [ -6.062254040811952, 53.005425377690358 ], [ -6.065543204746422, 53.005414971742887 ], [ -6.06679155686045, 53.005754670611495 ], [ -6.066890277036, 53.006129232363776 ], [ -6.064928240724643, 53.006502529351877 ], [ -6.063397880600781, 53.007233131662609 ], [ -6.06388212290771, 53.00784160925965 ], [ -6.06201550081378, 53.007719167121756 ], [ -6.062764110644386, 53.009441776402809 ], [ -6.063288654971439, 53.009617900967307 ], [ -6.062950571151921, 53.010722722806968 ], [ -6.064889211336069, 53.01130933705322 ], [ -6.065179392364995, 53.0121235252901 ], [ -6.06468545123057, 53.01229969237302 ], [ -6.063513073574451, 53.011923016826515 ], [ -6.063289386157631, 53.011487567703774 ], [ -6.061340428490366, 53.012045318554378 ], [ -6.059884357436565, 53.013279627039523 ], [ -6.059485396531704, 53.013254338164991 ], [ -6.059465889347829, 53.01224487808615 ], [ -6.05879980169591, 53.012297973310417 ], [ -6.057570260421114, 53.016040530089988 ], [ -6.05534166748299, 53.016274961278533 ], [ -6.055558478547425, 53.018537899452916 ], [ -6.051437477643203, 53.018099328358623 ], [ -6.050364329740169, 53.021707296795199 ], [ -6.049673330788968, 53.025448205369869 ], [ -6.055222062838367, 53.027393122923705 ], [ -6.05568843368701, 53.029342214620954 ], [ -6.054642639848866, 53.030857724609206 ], [ -6.056253109486113, 53.031644112353725 ], [ -6.050659549404453, 53.036090301554317 ], [ -6.048699763739781, 53.038611060938287 ], [ -6.048256417760153, 53.039919409154585 ], [ -6.049380260501289, 53.040285239767783 ], [ -6.047923089745101, 53.043001206178047 ], [ -6.048170802222677, 53.04489501118821 ], [ -6.048843403334796, 53.044869664809347 ], [ -6.0485591676756, 53.047516646806059 ], [ -6.0479251977694, 53.047546270012333 ], [ -6.047364166944778, 53.049930882471145 ], [ -6.047493623245565, 53.052795883651392 ], [ -6.045955334801436, 53.053016177204505 ], [ -6.045594147510254, 53.05490053713568 ], [ -6.048328514765236, 53.055326508388653 ], [ -6.048132738134335, 53.057031583391243 ], [ -6.04788139244473, 53.058103212277537 ], [ -6.045597408832454, 53.058011483768659 ], [ -6.047688754156161, 53.060665940717094 ], [ -6.049150141163778, 53.070577154381304 ], [ -6.047548066267567, 53.070532551335191 ], [ -6.046344144130011, 53.070980112806609 ], [ -6.035368602356967, 53.069245199481173 ], [ -6.036779845337477, 53.065509637609622 ], [ -6.035172937414074, 53.069266497372169 ], [ -6.035536393884334, 53.069391395129074 ], [ -6.036647563323526, 53.07800056008999 ], [ -6.037265463009788, 53.077945319240463 ], [ -6.03717423874336, 53.077335519686251 ], [ -6.041010897160997, 53.07541047343021 ], [ -6.041140655555921, 53.074571007067064 ], [ -6.044268434457821, 53.074322482626556 ], [ -6.042758201061821, 53.083430247276581 ], [ -6.043597411633489, 53.083514054816568 ], [ -6.043902128226, 53.084465934291885 ], [ -6.044840019548667, 53.084609530651583 ], [ -6.044824729746019, 53.085207388157592 ], [ -6.048046127900601, 53.086007202138362 ], [ -6.045620374049123, 53.089220834163598 ], [ -6.046404707230342, 53.090041656125237 ], [ -6.045623199232784, 53.089701064276134 ], [ -6.045176041766898, 53.090815786633868 ], [ -6.045268220805303, 53.092004339803701 ], [ -6.045893270157365, 53.091887865155115 ], [ -6.047426537903379, 53.095193430386168 ], [ -6.045907041735847, 53.095342338624178 ], [ -6.044903248892647, 53.101489883215493 ], [ -6.043204806263387, 53.101822235172165 ], [ -6.045124710754601, 53.103059934219473 ], [ -6.044697906065224, 53.103358029034098 ], [ -6.042231411577514, 53.103714010999937 ], [ -6.042480439698638, 53.106080870134392 ], [ -6.040680540218461, 53.106218286125504 ], [ -6.041968671779328, 53.117367608983734 ], [ -6.042907653345463, 53.120837433020291 ], [ -6.044762493723446, 53.124914560602065 ], [ -6.047709524912469, 53.12980487196895 ], [ -6.051941218560686, 53.134729904203475 ], [ -5.955555556165244, 53.133055556738952 ] ], [ [ -6.041150996307753, 53.105930266007135 ], [ -6.041333405077649, 53.105766518063348 ], [ -6.0411185623845, 53.105795350228547 ], [ -6.041150996307753, 53.105930266007135 ] ], [ [ -6.040810133350166, 53.057936627692314 ], [ -6.041246774041884, 53.057451087075194 ], [ -6.041277678366831, 53.056092415303624 ], [ -6.040884990611748, 53.056047628493594 ], [ -6.040222067457806, 53.057853393260189 ], [ -6.040810133350166, 53.057936627692314 ] ], [ [ -6.057114399904534, 53.004800801135509 ], [ -6.059421825585456, 53.003473917176876 ], [ -6.058951927788081, 53.002485757936455 ], [ -6.057020882111767, 53.003019162117177 ], [ -6.056437016012129, 53.004417457194982 ], [ -6.057114399904534, 53.004800801135509 ] ], [ [ -6.060480138620655, 53.000637070742997 ], [ -6.059619849746468, 52.999621495129816 ], [ -6.057028256266099, 52.999781122425333 ], [ -6.059448595054159, 53.001090695344324 ], [ -6.060480138620655, 53.000637070742997 ] ] ] ] } }
]
}
